Name,ID,Zip,County,Address,Latitude,Longitude
1599939,ec3mgd0g,97266.0,Multnomah County,"6400 SE 101st Ave, Portland, OR 97266, USA",45.4707988,-122.5603489
1599940,ec3mmf9s,97266.0,Multnomah County,"6400 SE 101st Ave, Portland, OR 97266, USA",45.4707988,-122.5603489
1599941,ec3seujm,97266.0,Multnomah County,"6400 SE 101st Ave, Portland, OR 97266, USA",45.4707988,-122.5603489
1599942,ec3j1wbp,97266.0,Multnomah County,"6400 SE 101st Ave, Portland, OR 97266, USA",45.4707988,-122.5603489
1599943,ec3nban9,97266.0,Multnomah County,"6400 SE 101st Ave, Portland, OR 97266, USA",45.4707988,-122.5603489
1599944,ec37r6my,97266.0,Multnomah County,"6400 SE 101st Ave, Portland, OR 97266, USA",45.4707988,-122.5603489
1599945,ec3j5jxd,97266.0,Multnomah County,"6400 SE 101st Ave, Portland, OR 97266, USA",45.4707988,-122.5603489
1599946,ec3su2jx,97266.0,Multnomah County,"6400 SE 101st Ave, Portland, OR 97266, USA",45.4707988,-122.5603489
1599947,ec3pqg4b,97266.0,Multnomah County,"6400 SE 101st Ave, Portland, OR 97266, USA",45.4707988,-122.5603489
1599948,ec3p8e90,97266.0,Multnomah County,"6400 SE 101st Ave, Portland, OR 97266, USA",45.4707988,-122.5603489
1599949,ec3nf8se,97266.0,Multnomah County,"6400 SE 101st Ave, Portland, OR 97266, USA",45.4707988,-122.5603489
1599950,ec3af5kp,97266.0,Multnomah County,"6400 SE 101st Ave, Portland, OR 97266, USA",45.4707988,-122.5603489
1599951,ec3gkuaa,97266.0,Multnomah County,"6400 SE 101st Ave, Portland, OR 97266, USA",45.4707988,-122.5603489
1529898,ec36q5rr,97217.0,Multnomah County,"5225 N Channel Ave, Portland, OR 97217, USA",45.5610747,-122.7155495
1599878,ec3qtu76,97217.0,Multnomah County,"5225 N Channel Ave, Portland, OR 97217, USA",45.5610747,-122.7155495
2315056,ec331up3,97266.0,Multnomah County,"6400 SE 101st Ave, Portland, OR 97266, USA",45.4707988,-122.5603489
1028116,ec34esqh,97266.0,Multnomah County,"6400 SE 101st Ave, Portland, OR 97266, USA",45.4707988,-122.5603489
1028118,ec3ff9b3,97266.0,Multnomah County,"6400 SE 101st Ave, Portland, OR 97266, USA",45.4707988,-122.5603489
1028120,ec3d3ydb,97266.0,Multnomah County,"6400 SE 101st Ave, Portland, OR 97266, USA",45.4707988,-122.5603489
1028166,ec3c429g,97266.0,Multnomah County,"6400 SE 101st Ave, Portland, OR 97266, USA",45.4707988,-122.5603489
1028335,ec3dnedx,97266.0,Multnomah County,"6400 SE 101st Ave, Portland, OR 97266, USA",45.4707988,-122.5603489
1159513,ec3yax4r,97266.0,Multnomah County,"6400 SE 101st Ave, Portland, OR 97266, USA",45.4707988,-122.5603489
1159514,ec3spybx,97266.0,Multnomah County,"6400 SE 101st Ave, Portland, OR 97266, USA",45.4707988,-122.5603489
1159515,ec3bg3zf,97266.0,Multnomah County,"6400 SE 101st Ave, Portland, OR 97266, USA",45.4707988,-122.5603489
1246857,ec31x2kk,97266.0,Multnomah County,"6400 SE 101st Ave, Portland, OR 97266, USA",45.4707988,-122.5603489
1282431,ec3rhg5y,97266.0,Multnomah County,"6400 SE 101st Ave, Portland, OR 97266, USA",45.4707988,-122.5603489
1308041,ec3ny2mh,97266.0,Multnomah County,"6400 SE 101st Ave, Portland, OR 97266, USA",45.4707988,-122.5603489
1308074,ec3bebed,97266.0,Multnomah County,"6400 SE 101st Ave, Portland, OR 97266, USA",45.4707988,-122.5603489
1308108,ec36fu03,97266.0,Multnomah County,"6400 SE 101st Ave, Portland, OR 97266, USA",45.4707988,-122.5603489
1308127,ec3431qs,97266.0,Multnomah County,"6400 SE 101st Ave, Portland, OR 97266, USA",45.4707988,-122.5603489
1308129,ec3wrt4h,97266.0,Multnomah County,"6400 SE 101st Ave, Portland, OR 97266, USA",45.4707988,-122.5603489
1308130,ec3p2rzx,97266.0,Multnomah County,"6400 SE 101st Ave, Portland, OR 97266, USA",45.4707988,-122.5603489
1308140,ec36gy1u,97266.0,Multnomah County,"6400 SE 101st Ave, Portland, OR 97266, USA",45.4707988,-122.5603489
1308141,ec374nca,97266.0,Multnomah County,"6400 SE 101st Ave, Portland, OR 97266, USA",45.4707988,-122.5603489
1308144,ec3wxfta,97266.0,Multnomah County,"6400 SE 101st Ave, Portland, OR 97266, USA",45.4707988,-122.5603489
1308146,ec320ew7,97266.0,Multnomah County,"6400 SE 101st Ave, Portland, OR 97266, USA",45.4707988,-122.5603489
1599884,ec3ahq88,97266.0,Multnomah County,"6400 SE 101st Ave, Portland, OR 97266, USA",45.4707988,-122.5603489
1599885,ec3mrx4q,97266.0,Multnomah County,"6400 SE 101st Ave, Portland, OR 97266, USA",45.4707988,-122.5603489
1599886,ec3t1zfh,97266.0,Multnomah County,"6400 SE 101st Ave, Portland, OR 97266, USA",45.4707988,-122.5603489
1599887,ec3413z8,97266.0,Multnomah County,"6400 SE 101st Ave, Portland, OR 97266, USA",45.4707988,-122.5603489
1599888,ec3hf1j5,97266.0,Multnomah County,"6400 SE 101st Ave, Portland, OR 97266, USA",45.4707988,-122.5603489
1599889,ec3p02g5,97266.0,Multnomah County,"6400 SE 101st Ave, Portland, OR 97266, USA",45.4707988,-122.5603489
1599894,ec31cxrc,97266.0,Multnomah County,"6400 SE 101st Ave, Portland, OR 97266, USA",45.4707988,-122.5603489
1599895,ec3yrrcr,97266.0,Multnomah County,"6400 SE 101st Ave, Portland, OR 97266, USA",45.4707988,-122.5603489
1599896,ec36xp1j,97266.0,Multnomah County,"6400 SE 101st Ave, Portland, OR 97266, USA",45.4707988,-122.5603489
1599897,ec3jw4z1,97266.0,Multnomah County,"6400 SE 101st Ave, Portland, OR 97266, USA",45.4707988,-122.5603489
1599899,ec3r68as,97266.0,Multnomah County,"6400 SE 101st Ave, Portland, OR 97266, USA",45.4707988,-122.5603489
1599901,ec3zqk2j,97266.0,Multnomah County,"6400 SE 101st Ave, Portland, OR 97266, USA",45.4707988,-122.5603489
1599904,ec3gbdce,97266.0,Multnomah County,"6400 SE 101st Ave, Portland, OR 97266, USA",45.4707988,-122.5603489
1599935,ec3qk8kn,97266.0,Multnomah County,"6400 SE 101st Ave, Portland, OR 97266, USA",45.4707988,-122.5603489
1599936,ec31cskg,97266.0,Multnomah County,"6400 SE 101st Ave, Portland, OR 97266, USA",45.4707988,-122.5603489
1599937,ec3275e6,97266.0,Multnomah County,"6400 SE 101st Ave, Portland, OR 97266, USA",45.4707988,-122.5603489
1599938,ec3qc8h6,97266.0,Multnomah County,"6400 SE 101st Ave, Portland, OR 97266, USA",45.4707988,-122.5603489
1584970,ec380kf7,97217.0,Multnomah County,"5225 N Channel Ave, Portland, OR 97217, USA",45.5610747,-122.7155495
40DC322N,ec3wtphh,97702.0,Deschutes,"95 Southwest Scale House Loop, Bend, OR 97702",44.04831,-121.30775
#name_is_not_extracted,ec3rf1w8,21742.0,Multnomah County,"Portland, OR, USA",45.5051064,-122.6750261
Holcim Holly Hill Cement Plant Portland Type I/II,ec37as10,21742.0,Multnomah County,"Portland, OR, USA",45.5051064,-122.6750261
#name_is_not_extracted,ec3gy51d,21742.0,Multnomah County,"Portland, OR, USA",45.5051064,-122.6750261
#name_is_not_extracted,ec3uka2t,21742.0,Multnomah County,"Portland, OR, USA",45.5051064,-122.6750261
#name_is_not_extracted,ec390tuw,21742.0,Multnomah County,"Portland, OR, USA",45.5051064,-122.6750261
#name_is_not_extracted,ec33cs47,21742.0,Multnomah County,"Portland, OR, USA",45.5051064,-122.6750261
1308161S,ec3gjswd,97266.0,Multnomah County,"6400 SE 101st Ave, Portland, OR 97266, USA",45.4707988,-122.5603489
1529001,ec387udy,97266.0,Multnomah County,"6400 SE 101st Ave, Portland, OR 97266, USA",45.4707988,-122.5603489
1593787,ec3g7w24,97266.0,Multnomah County,"6400 SE 101st Ave, Portland, OR 97266, USA",45.4707988,-122.5603489
1595387,ec3ys1yp,97266.0,Multnomah County,"6400 SE 101st Ave, Portland, OR 97266, USA",45.4707988,-122.5603489
1599907,ec3tyhef,97266.0,Multnomah County,"6400 SE 101st Ave, Portland, OR 97266, USA",45.4707988,-122.5603489
1595532,ec34qf4p,97266.0,Multnomah County,"6400 SE 101st Ave, Portland, OR 97266, USA",45.4707988,-122.5603489
1599962,ec3pq78u,97266.0,Multnomah County,"6400 SE 101st Ave, Portland, OR 97266, USA",45.4707988,-122.5603489
1028116,ec3xcms9,97266.0,Multnomah County,"6400 SE 101st Ave, Portland, OR 97266, USA",45.4707988,-122.5603489
1028118,ec3063fd,97266.0,Multnomah County,"6400 SE 101st Ave, Portland, OR 97266, USA",45.4707988,-122.5603489
1028120,ec37xs3q,97266.0,Multnomah County,"6400 SE 101st Ave, Portland, OR 97266, USA",45.4707988,-122.5603489
1028120S,ec3dpbr6,97266.0,Multnomah County,"6400 SE 101st Ave, Portland, OR 97266, USA",45.4707988,-122.5603489
1159514,ec3nm9np,97266.0,Multnomah County,"6400 SE 101st Ave, Portland, OR 97266, USA",45.4707988,-122.5603489
1159515,ec3c8jka,97266.0,Multnomah County,"6400 SE 101st Ave, Portland, OR 97266, USA",45.4707988,-122.5603489
1246857,ec3egudx,97266.0,Multnomah County,"6400 SE 101st Ave, Portland, OR 97266, USA",45.4707988,-122.5603489
1282431,ec3puu1s,97266.0,Multnomah County,"6400 SE 101st Ave, Portland, OR 97266, USA",45.4707988,-122.5603489
1308074S,ec36te5u,97266.0,Multnomah County,"6400 SE 101st Ave, Portland, OR 97266, USA",45.4707988,-122.5603489
1308130,ec3fkn6w,97266.0,Multnomah County,"6400 SE 101st Ave, Portland, OR 97266, USA",45.4707988,-122.5603489
1308146,ec3dgmam,97266.0,Multnomah County,"6400 SE 101st Ave, Portland, OR 97266, USA",45.4707988,-122.5603489
1308147,ec3nc3kn,97266.0,Multnomah County,"6400 SE 101st Ave, Portland, OR 97266, USA",45.4707988,-122.5603489
1308152,ec32je7n,97266.0,Multnomah County,"6400 SE 101st Ave, Portland, OR 97266, USA",45.4707988,-122.5603489
1308148,ec3mh0kk,97266.0,Multnomah County,"6400 SE 101st Ave, Portland, OR 97266, USA",45.4707988,-122.5603489
1308159,ec33gef7,97266.0,Multnomah County,"6400 SE 101st Ave, Portland, OR 97266, USA",45.4707988,-122.5603489
1308161S,ec30fwud,97266.0,Multnomah County,"6400 SE 101st Ave, Portland, OR 97266, USA",45.4707988,-122.5603489
1308180S,ec3r5kjy,97266.0,Multnomah County,"6400 SE 101st Ave, Portland, OR 97266, USA",45.4707988,-122.5603489
1308180,ec3re61j,97266.0,Multnomah County,"6400 SE 101st Ave, Portland, OR 97266, USA",45.4707988,-122.5603489
1308183,ec3222rp,97266.0,Multnomah County,"6400 SE 101st Ave, Portland, OR 97266, USA",45.4707988,-122.5603489
1308194S,ec3g0yy9,97266.0,Multnomah County,"6400 SE 101st Ave, Portland, OR 97266, USA",45.4707988,-122.5603489
1308192S,ec329adw,97266.0,Multnomah County,"6400 SE 101st Ave, Portland, OR 97266, USA",45.4707988,-122.5603489
1308207S,ec3321qg,97266.0,Multnomah County,"6400 SE 101st Ave, Portland, OR 97266, USA",45.4707988,-122.5603489
1308218,ec3nup5w,97266.0,Multnomah County,"6400 SE 101st Ave, Portland, OR 97266, USA",45.4707988,-122.5603489
1308220,ec3gfed5,97266.0,Multnomah County,"6400 SE 101st Ave, Portland, OR 97266, USA",45.4707988,-122.5603489
1308220S,ec3e0h0z,97266.0,Multnomah County,"6400 SE 101st Ave, Portland, OR 97266, USA",45.4707988,-122.5603489
1308242,ec3mhuqj,97266.0,Multnomah County,"6400 SE 101st Ave, Portland, OR 97266, USA",45.4707988,-122.5603489
1308246,ec3puwn8,97266.0,Multnomah County,"6400 SE 101st Ave, Portland, OR 97266, USA",45.4707988,-122.5603489
1308349,ec37x987,97266.0,Multnomah County,"6400 SE 101st Ave, Portland, OR 97266, USA",45.4707988,-122.5603489
1308349S,ec3zkjsy,97266.0,Multnomah County,"6400 SE 101st Ave, Portland, OR 97266, USA",45.4707988,-122.5603489
1308343,ec39dw24,97266.0,Multnomah County,"6400 SE 101st Ave, Portland, OR 97266, USA",45.4707988,-122.5603489
1308376,ec375xwj,97266.0,Multnomah County,"6400 SE 101st Ave, Portland, OR 97266, USA",45.4707988,-122.5603489
1308374.,ec3w66yd,97266.0,Multnomah County,"6400 SE 101st Ave, Portland, OR 97266, USA",45.4707988,-122.5603489
1308382,ec38kkhc,97266.0,Multnomah County,"6400 SE 101st Ave, Portland, OR 97266, USA",45.4707988,-122.5603489
1308378,ec3n44ex,97266.0,Multnomah County,"6400 SE 101st Ave, Portland, OR 97266, USA",45.4707988,-122.5603489
1308393,ec340cuy,97266.0,Multnomah County,"6400 SE 101st Ave, Portland, OR 97266, USA",45.4707988,-122.5603489
1308426,ec3kktyu,97266.0,Multnomah County,"6400 SE 101st Ave, Portland, OR 97266, USA",45.4707988,-122.5603489
1308427,ec38nj7f,97266.0,Multnomah County,"6400 SE 101st Ave, Portland, OR 97266, USA",45.4707988,-122.5603489
1314972S,ec3c9k6a,97266.0,Multnomah County,"6400 SE 101st Ave, Portland, OR 97266, USA",45.4707988,-122.5603489
1318374,ec3qhsk7,97266.0,Multnomah County,"6400 SE 101st Ave, Portland, OR 97266, USA",45.4707988,-122.5603489
1308372S,ec3qm1xr,97266.0,Multnomah County,"6400 SE 101st Ave, Portland, OR 97266, USA",45.4707988,-122.5603489
1336952,ec3crzuf,97266.0,Multnomah County,"6400 SE 101st Ave, Portland, OR 97266, USA",45.4707988,-122.5603489
1375499,ec3pm12g,97266.0,Multnomah County,"6400 SE 101st Ave, Portland, OR 97266, USA",45.4707988,-122.5603489
1391036S,ec3dtq3y,97266.0,Multnomah County,"6400 SE 101st Ave, Portland, OR 97266, USA",45.4707988,-122.5603489
1411477S,ec3qcmah,97266.0,Multnomah County,"6400 SE 101st Ave, Portland, OR 97266, USA",45.4707988,-122.5603489
1486687,ec36m57q,97266.0,Multnomah,"6400 Southeast 101st Avenue, Portland, OR 97266",45.47547,-122.5591
1510910,ec3fhxzf,97266.0,Multnomah County,"6400 SE 101st Ave, Portland, OR 97266, USA",45.4707988,-122.5603489
1522393,ec3xxshu,97266.0,Multnomah County,"6400 SE 101st Ave, Portland, OR 97266, USA",45.4707988,-122.5603489
1529005,ec3gpnga,97266.0,Multnomah County,"6400 SE 101st Ave, Portland, OR 97266, USA",45.4707988,-122.5603489
1540479,ec3h4c6w,97266.0,Multnomah County,"6400 SE 101st Ave, Portland, OR 97266, USA",45.4707988,-122.5603489
1363850,ec334gx0,97266.0,Multnomah County,"6400 SE 101st Ave, Portland, OR 97266, USA",45.4707988,-122.5603489
1540480,ec3rdhxz,97266.0,Multnomah County,"6400 SE 101st Ave, Portland, OR 97266, USA",45.4707988,-122.5603489
1522531,ec363yua,97266.0,Multnomah County,"6400 SE 101st Ave, Portland, OR 97266, USA",45.4707988,-122.5603489
1544856,ec3yx7r7,97266.0,Multnomah County,"6400 SE 101st Ave, Portland, OR 97266, USA",45.4707988,-122.5603489
1547718,ec3500we,97266.0,Multnomah County,"6400 SE 101st Ave, Portland, OR 97266, USA",45.4707988,-122.5603489
1522395,ec32ws3y,97266.0,Multnomah County,"6400 SE 101st Ave, Portland, OR 97266, USA",45.4707988,-122.5603489
1555585,ec3xaby1,97266.0,Multnomah County,"6400 SE 101st Ave, Portland, OR 97266, USA",45.4707988,-122.5603489
1560804,ec33bp2y,97266.0,Multnomah County,"6400 SE 101st Ave, Portland, OR 97266, USA",45.4707988,-122.5603489
1565526,ec3yfr3j,97266.0,Multnomah County,"6400 SE 101st Ave, Portland, OR 97266, USA",45.4707988,-122.5603489
1572356,ec3wp9sd,97266.0,Multnomah County,"6400 SE 101st Ave, Portland, OR 97266, USA",45.4707988,-122.5603489
1568055,ec31snc3,97266.0,Multnomah County,"6400 SE 101st Ave, Portland, OR 97266, USA",45.4707988,-122.5603489
1575068,ec31nejq,97266.0,Multnomah County,"6400 SE 101st Ave, Portland, OR 97266, USA",45.4707988,-122.5603489
1572191,ec3swy0j,97266.0,Multnomah County,"6400 SE 101st Ave, Portland, OR 97266, USA",45.4707988,-122.5603489
1575255,ec38qsct,97266.0,Multnomah County,"6400 SE 101st Ave, Portland, OR 97266, USA",45.4707988,-122.5603489
1575365,ec39d8x3,97266.0,Multnomah County,"6400 SE 101st Ave, Portland, OR 97266, USA",45.4707988,-122.5603489
1573685,ec36r7wa,97266.0,Multnomah County,"6400 SE 101st Ave, Portland, OR 97266, USA",45.4707988,-122.5603489
1575357,ec3xmxx2,97266.0,Multnomah County,"6400 SE 101st Ave, Portland, OR 97266, USA",45.4707988,-122.5603489
1575585,ec351qjs,97266.0,Multnomah County,"6400 SE 101st Ave, Portland, OR 97266, USA",45.4707988,-122.5603489
1575362S,ec3dp9xa,97266.0,Multnomah County,"6400 SE 101st Ave, Portland, OR 97266, USA",45.4707988,-122.5603489
1577079,ec30k8n8,97266.0,Multnomah County,"6400 SE 101st Ave, Portland, OR 97266, USA",45.4707988,-122.5603489
1575365S,ec3991sn,97266.0,Multnomah County,"6400 SE 101st Ave, Portland, OR 97266, USA",45.4707988,-122.5603489
1575506,ec3m0bqx,97266.0,Multnomah County,"6400 SE 101st Ave, Portland, OR 97266, USA",45.4707988,-122.5603489
1578478,ec36gqa7,97266.0,Multnomah County,"6400 SE 101st Ave, Portland, OR 97266, USA",45.4707988,-122.5603489
1584967,ec34x4mr,97266.0,Multnomah County,"6400 SE 101st Ave, Portland, OR 97266, USA",45.4707988,-122.5603489
1579675,ec35r1x4,97266.0,Multnomah County,"6400 SE 101st Ave, Portland, OR 97266, USA",45.4707988,-122.5603489
1584968S,ec31n7wh,97266.0,Multnomah County,"6400 SE 101st Ave, Portland, OR 97266, USA",45.4707988,-122.5603489
1584969S,ec3a3pqr,97266.0,Multnomah County,"6400 SE 101st Ave, Portland, OR 97266, USA",45.4707988,-122.5603489
1582743,ec3u3tru,97266.0,Multnomah County,"6400 SE 101st Ave, Portland, OR 97266, USA",45.4707988,-122.5603489
1587406,ec306jtd,97266.0,Multnomah County,"6400 SE 101st Ave, Portland, OR 97266, USA",45.4707988,-122.5603489
1584968,ec30xpfg,97266.0,Multnomah County,"6400 SE 101st Ave, Portland, OR 97266, USA",45.4707988,-122.5603489
1584966S,ec309h9a,97266.0,Multnomah County,"6400 SE 101st Ave, Portland, OR 97266, USA",45.4707988,-122.5603489
1584967S,ec3jk551,97266.0,Multnomah County,"6400 SE 101st Ave, Portland, OR 97266, USA",45.4707988,-122.5603489
1584969,ec39zwnp,97266.0,Multnomah County,"6400 SE 101st Ave, Portland, OR 97266, USA",45.4707988,-122.5603489
1588319,ec3t0tna,97266.0,Multnomah County,"6400 SE 101st Ave, Portland, OR 97266, USA",45.4707988,-122.5603489
1587405,ec399ye4,97266.0,Multnomah County,"6400 SE 101st Ave, Portland, OR 97266, USA",45.4707988,-122.5603489
1588481,ec3crtmc,97266.0,Multnomah County,"6400 SE 101st Ave, Portland, OR 97266, USA",45.4707988,-122.5603489
1587406S,ec3ckh6r,97266.0,Multnomah County,"6400 SE 101st Ave, Portland, OR 97266, USA",45.4707988,-122.5603489
1593787,ec3ruqjt,97266.0,Multnomah County,"6400 SE 101st Ave, Portland, OR 97266, USA",45.4707988,-122.5603489
1592472,ec3szje4,97266.0,Multnomah County,"6400 SE 101st Ave, Portland, OR 97266, USA",45.4707988,-122.5603489
1595532,ec3wpz09,97266.0,Multnomah County,"6400 SE 101st Ave, Portland, OR 97266, USA",45.4707988,-122.5603489
1599854,ec3cdkuj,97266.0,Multnomah County,"6400 SE 101st Ave, Portland, OR 97266, USA",45.4707988,-122.5603489
1599876S,ec3qr0q4,97266.0,Multnomah County,"6400 SE 101st Ave, Portland, OR 97266, USA",45.4707988,-122.5603489
1599877S,ec329zmn,97266.0,Multnomah County,"6400 SE 101st Ave, Portland, OR 97266, USA",45.4707988,-122.5603489
1599880C,ec3tbu7z,97266.0,Multnomah County,"6400 SE 101st Ave, Portland, OR 97266, USA",45.4707988,-122.5603489
1599872,ec3brg0z,97266.0,Multnomah County,"6400 SE 101st Ave, Portland, OR 97266, USA",45.4707988,-122.5603489
1599888,ec3ss7t5,97266.0,Multnomah County,"6400 SE 101st Ave, Portland, OR 97266, USA",45.4707988,-122.5603489
1599866,ec3m7ta9,97266.0,Multnomah County,"6400 SE 101st Ave, Portland, OR 97266, USA",45.4707988,-122.5603489
1599874,ec3d352b,97266.0,Multnomah County,"6400 SE 101st Ave, Portland, OR 97266, USA",45.4707988,-122.5603489
1599878,ec3bf5fc,97266.0,Multnomah County,"6400 SE 101st Ave, Portland, OR 97266, USA",45.4707988,-122.5603489
1599897,ec3kp619,97266.0,Multnomah County,"6400 SE 101st Ave, Portland, OR 97266, USA",45.4707988,-122.5603489
1599907S,ec3hrcnq,97266.0,Multnomah County,"6400 SE 101st Ave, Portland, OR 97266, USA",45.4707988,-122.5603489
1599884,ec3kuf9t,97266.0,Multnomah County,"6400 SE 101st Ave, Portland, OR 97266, USA",45.4707988,-122.5603489
1599899,ec3nn93a,97266.0,Multnomah County,"6400 SE 101st Ave, Portland, OR 97266, USA",45.4707988,-122.5603489
1599906S,ec3gefn4,97266.0,Multnomah County,"6400 SE 101st Ave, Portland, OR 97266, USA",45.4707988,-122.5603489
1599925,ec3bq4nx,97266.0,Multnomah County,"6400 SE 101st Ave, Portland, OR 97266, USA",45.4707988,-122.5603489
1599928,ec33s4b7,97266.0,Multnomah County,"6400 SE 101st Ave, Portland, OR 97266, USA",45.4707988,-122.5603489
1599926,ec34xk6u,97266.0,Multnomah,"6400 Southeast 101st Avenue, Portland, OR 97266",45.47547,-122.5591
1599914,ec3pk1sf,97266.0,Multnomah County,"6400 SE 101st Ave, Portland, OR 97266, USA",45.4707988,-122.5603489
1599927,ec3ns272,97266.0,Multnomah County,"6400 SE 101st Ave, Portland, OR 97266, USA",45.4707988,-122.5603489
1599938,ec3th5hc,97266.0,Multnomah County,"6400 SE 101st Ave, Portland, OR 97266, USA",45.4707988,-122.5603489
1599929,ec331cpc,97266.0,Multnomah County,"6400 SE 101st Ave, Portland, OR 97266, USA",45.4707988,-122.5603489
1599935,ec3xt9c7,97266.0,Multnomah County,"6400 SE 101st Ave, Portland, OR 97266, USA",45.4707988,-122.5603489
1599946,ec3g4uu6,97266.0,Multnomah County,"6400 SE 101st Ave, Portland, OR 97266, USA",45.4707988,-122.5603489
1599952,ec3jf32w,97266.0,Multnomah County,"6400 SE 101st Ave, Portland, OR 97266, USA",45.4707988,-122.5603489
1599966,ec3y9xq1,97266.0,Multnomah County,"6400 SE 101st Ave, Portland, OR 97266, USA",45.4707988,-122.5603489
1599967,ec3dbhmt,97266.0,Multnomah County,"6400 SE 101st Ave, Portland, OR 97266, USA",45.4707988,-122.5603489
1599948,ec3eqx36,97266.0,Multnomah County,"6400 SE 101st Ave, Portland, OR 97266, USA",45.4707988,-122.5603489
1599970S,ec3sk5fq,97266.0,Multnomah County,"6400 SE 101st Ave, Portland, OR 97266, USA",45.4707988,-122.5603489
1599954,ec3abbk7,97266.0,Multnomah County,"6400 SE 101st Ave, Portland, OR 97266, USA",45.4707988,-122.5603489
1599939,ec3m82p4,97266.0,Multnomah County,"6400 SE 101st Ave, Portland, OR 97266, USA",45.4707988,-122.5603489
2108282,ec3pgrmm,97266.0,Multnomah County,"6400 SE 101st Ave, Portland, OR 97266, USA",45.4707988,-122.5603489
2138166,ec3z3bxw,97266.0,Multnomah County,"6400 SE 101st Ave, Portland, OR 97266, USA",45.4707988,-122.5603489
1599951,ec3rmaw2,97266.0,Multnomah County,"6400 SE 101st Ave, Portland, OR 97266, USA",45.4707988,-122.5603489
2115365,ec3qadz1,97266.0,Multnomah County,"6400 SE 101st Ave, Portland, OR 97266, USA",45.4707988,-122.5603489
1599976,ec3nq2fc,97266.0,Multnomah County,"6400 SE 101st Ave, Portland, OR 97266, USA",45.4707988,-122.5603489
2304967,ec3u2ke3,97266.0,Multnomah County,"6400 SE 101st Ave, Portland, OR 97266, USA",45.4707988,-122.5603489
2308192C,ec3s3qd9,97266.0,Multnomah County,"6400 SE 101st Ave, Portland, OR 97266, USA",45.4707988,-122.5603489
2308194,ec3y4b4a,97266.0,Multnomah County,"6400 SE 101st Ave, Portland, OR 97266, USA",45.4707988,-122.5603489
2308207,ec3hb261,97266.0,Multnomah County,"6400 SE 101st Ave, Portland, OR 97266, USA",45.4707988,-122.5603489
2315365,ec3da48e,97266.0,Multnomah County,"6400 SE 101st Ave, Portland, OR 97266, USA",45.4707988,-122.5603489
3403286,ec3afgf0,97266.0,Multnomah County,"6400 SE 101st Ave, Portland, OR 97266, USA",45.4707988,-122.5603489
2304968,ec3dy7d3,97266.0,Multnomah County,"6400 SE 101st Ave, Portland, OR 97266, USA",45.4707988,-122.5603489
3414556,ec3c4gmj,97266.0,Multnomah County,"6400 SE 101st Ave, Portland, OR 97266, USA",45.4707988,-122.5603489
2308164,ec30z6jh,97266.0,Multnomah County,"6400 SE 101st Ave, Portland, OR 97266, USA",45.4707988,-122.5603489
309507,ec3ppfq5,97333.0,Benton County,"28054 Payne Rd, Corvallis, OR 97333, USA",44.48843919999999,-123.2588244
390403,ec39fauc,97333.0,Benton County,"28054 Payne Rd, Corvallis, OR 97333, USA",44.48843919999999,-123.2588244
1028116,ec3x4hgw,97266.0,Multnomah County,"6400 SE 101st Ave, Portland, OR 97266, USA",45.4707988,-122.5603489
1028118,ec3z8dtc,97266.0,Multnomah County,"6400 SE 101st Ave, Portland, OR 97266, USA",45.4707988,-122.5603489
1028120,ec35eqmh,97266.0,Multnomah County,"6400 SE 101st Ave, Portland, OR 97266, USA",45.4707988,-122.5603489
1028166,ec36eex1,97266.0,Multnomah County,"6400 SE 101st Ave, Portland, OR 97266, USA",45.4707988,-122.5603489
1028335,ec3axfx0,97266.0,Multnomah County,"6400 SE 101st Ave, Portland, OR 97266, USA",45.4707988,-122.5603489
1159513,ec30p2ur,97266.0,Multnomah County,"6400 SE 101st Ave, Portland, OR 97266, USA",45.4707988,-122.5603489
1159514,ec3wj9k5,97266.0,Multnomah County,"6400 SE 101st Ave, Portland, OR 97266, USA",45.4707988,-122.5603489
1159515,ec3uezeg,97266.0,Multnomah County,"6400 SE 101st Ave, Portland, OR 97266, USA",45.4707988,-122.5603489
1246857,ec3t4b1q,97266.0,Multnomah County,"6400 SE 101st Ave, Portland, OR 97266, USA",45.4707988,-122.5603489
1282431,ec3nq8dr,97266.0,Multnomah County,"6400 SE 101st Ave, Portland, OR 97266, USA",45.4707988,-122.5603489
1308041,ec34skm3,97266.0,Multnomah County,"6400 SE 101st Ave, Portland, OR 97266, USA",45.4707988,-122.5603489
1308074,ec3x3p1a,97266.0,Multnomah County,"6400 SE 101st Ave, Portland, OR 97266, USA",45.4707988,-122.5603489
1308129,ec3exsnf,97266.0,Multnomah County,"6400 SE 101st Ave, Portland, OR 97266, USA",45.4707988,-122.5603489
1308130,ec375c93,97266.0,Multnomah County,"6400 SE 101st Ave, Portland, OR 97266, USA",45.4707988,-122.5603489
1308108,ec3242hn,97266.0,Multnomah County,"6400 SE 101st Ave, Portland, OR 97266, USA",45.4707988,-122.5603489
1308141,ec3m0m2b,97266.0,Multnomah County,"6400 SE 101st Ave, Portland, OR 97266, USA",45.4707988,-122.5603489
1308140,ec3zmtgr,97266.0,Multnomah County,"6400 SE 101st Ave, Portland, OR 97266, USA",45.4707988,-122.5603489
1308144,ec3j95ya,97266.0,Multnomah County,"6400 SE 101st Ave, Portland, OR 97266, USA",45.4707988,-122.5603489
1308147,ec36mr1x,97266.0,Multnomah County,"6400 SE 101st Ave, Portland, OR 97266, USA",45.4707988,-122.5603489
1308146,ec3cxy48,97266.0,Multnomah County,"6400 SE 101st Ave, Portland, OR 97266, USA",45.4707988,-122.5603489
1308148,ec3c5j8h,97266.0,Multnomah County,"6400 SE 101st Ave, Portland, OR 97266, USA",45.4707988,-122.5603489
1308152,ec3wk1x8,97266.0,Multnomah County,"6400 SE 101st Ave, Portland, OR 97266, USA",45.4707988,-122.5603489
1308159,ec32a4p1,97266.0,Multnomah County,"6400 SE 101st Ave, Portland, OR 97266, USA",45.4707988,-122.5603489
1308160,ec3th201,97266.0,Multnomah County,"6400 SE 101st Ave, Portland, OR 97266, USA",45.4707988,-122.5603489
1308161,ec3hmdj4,97266.0,Multnomah County,"6400 SE 101st Ave, Portland, OR 97266, USA",45.4707988,-122.5603489
1308164,ec3fx4su,97266.0,Multnomah County,"6400 SE 101st Ave, Portland, OR 97266, USA",45.4707988,-122.5603489
1308127,ec3gwdxx,97266.0,Multnomah County,"6400 SE 101st Ave, Portland, OR 97266, USA",45.4707988,-122.5603489
1308166,ec36ym83,97266.0,Multnomah County,"6400 SE 101st Ave, Portland, OR 97266, USA",45.4707988,-122.5603489
1308179,ec3q53pp,97266.0,Multnomah County,"6400 SE 101st Ave, Portland, OR 97266, USA",45.4707988,-122.5603489
1308180,ec3mb4ty,97266.0,Multnomah County,"6400 SE 101st Ave, Portland, OR 97266, USA",45.4707988,-122.5603489
1308183,ec3ctx20,97266.0,Multnomah County,"6400 SE 101st Ave, Portland, OR 97266, USA",45.4707988,-122.5603489
1308184,ec34t2kw,97266.0,Multnomah County,"6400 SE 101st Ave, Portland, OR 97266, USA",45.4707988,-122.5603489
1308192,ec333atr,97266.0,Multnomah County,"6400 SE 101st Ave, Portland, OR 97266, USA",45.4707988,-122.5603489
1308194,ec3jexta,97266.0,Multnomah County,"6400 SE 101st Ave, Portland, OR 97266, USA",45.4707988,-122.5603489
1308195,ec3hsutz,97266.0,Multnomah County,"6400 SE 101st Ave, Portland, OR 97266, USA",45.4707988,-122.5603489
1308197,ec3xf8jq,97266.0,Multnomah County,"6400 SE 101st Ave, Portland, OR 97266, USA",45.4707988,-122.5603489
1308207,ec3kzxd3,97266.0,Multnomah County,"6400 SE 101st Ave, Portland, OR 97266, USA",45.4707988,-122.5603489
1308208,ec3uyyj0,97266.0,Multnomah County,"6400 SE 101st Ave, Portland, OR 97266, USA",45.4707988,-122.5603489
1308218,ec3xsx51,97266.0,Multnomah County,"6400 SE 101st Ave, Portland, OR 97266, USA",45.4707988,-122.5603489
1308219,ec3wq7c8,97266.0,Multnomah County,"6400 SE 101st Ave, Portland, OR 97266, USA",45.4707988,-122.5603489
1308220,ec37c43a,97266.0,Multnomah County,"6400 SE 101st Ave, Portland, OR 97266, USA",45.4707988,-122.5603489
1308242,ec3ghe8q,97266.0,Multnomah County,"6400 SE 101st Ave, Portland, OR 97266, USA",45.4707988,-122.5603489
1308244,ec395cqw,97266.0,Multnomah County,"6400 SE 101st Ave, Portland, OR 97266, USA",45.4707988,-122.5603489
1308246,ec3kyxd1,97266.0,Multnomah County,"6400 SE 101st Ave, Portland, OR 97266, USA",45.4707988,-122.5603489
1308248,ec3e33h8,97266.0,Multnomah County,"6400 SE 101st Ave, Portland, OR 97266, USA",45.4707988,-122.5603489
1308249,ec37jk0y,97266.0,Multnomah County,"6400 SE 101st Ave, Portland, OR 97266, USA",45.4707988,-122.5603489
1308325,ec3w1w6g,97266.0,Multnomah County,"6400 SE 101st Ave, Portland, OR 97266, USA",45.4707988,-122.5603489
1308336,ec3um832,97266.0,Multnomah County,"6400 SE 101st Ave, Portland, OR 97266, USA",45.4707988,-122.5603489
1308343,ec3jw7wu,97266.0,Multnomah County,"6400 SE 101st Ave, Portland, OR 97266, USA",45.4707988,-122.5603489
1308349,ec3ypwws,97266.0,Multnomah County,"6400 SE 101st Ave, Portland, OR 97266, USA",45.4707988,-122.5603489
1308350,ec3xy497,97266.0,Multnomah County,"6400 SE 101st Ave, Portland, OR 97266, USA",45.4707988,-122.5603489
1308372,ec3nj8sr,97266.0,Multnomah County,"6400 SE 101st Ave, Portland, OR 97266, USA",45.4707988,-122.5603489
1308374,ec3t66z4,97266.0,Multnomah County,"6400 SE 101st Ave, Portland, OR 97266, USA",45.4707988,-122.5603489
1308376,ec3m9aak,97266.0,Multnomah County,"6400 SE 101st Ave, Portland, OR 97266, USA",45.4707988,-122.5603489
1308378,ec3xrqtq,97266.0,Multnomah County,"6400 SE 101st Ave, Portland, OR 97266, USA",45.4707988,-122.5603489
1308382,ec385apg,97266.0,Multnomah County,"6400 SE 101st Ave, Portland, OR 97266, USA",45.4707988,-122.5603489
1308383,ec3w149m,97266.0,Multnomah County,"6400 SE 101st Ave, Portland, OR 97266, USA",45.4707988,-122.5603489
1308393,ec35fcs1,97266.0,Multnomah County,"6400 SE 101st Ave, Portland, OR 97266, USA",45.4707988,-122.5603489
1308394,ec3fr7nm,97266.0,Multnomah County,"6400 SE 101st Ave, Portland, OR 97266, USA",45.4707988,-122.5603489
1308395,ec3cx1t0,97266.0,Multnomah County,"6400 SE 101st Ave, Portland, OR 97266, USA",45.4707988,-122.5603489
1308424,ec39r2sm,97266.0,Multnomah County,"6400 SE 101st Ave, Portland, OR 97266, USA",45.4707988,-122.5603489
1308425,ec3yx0km,97266.0,Multnomah County,"6400 SE 101st Ave, Portland, OR 97266, USA",45.4707988,-122.5603489
1308426,ec3ej5k0,97266.0,Multnomah County,"6400 SE 101st Ave, Portland, OR 97266, USA",45.4707988,-122.5603489
1308427,ec3achcx,97266.0,Multnomah County,"6400 SE 101st Ave, Portland, OR 97266, USA",45.4707988,-122.5603489
1314972,ec3jeukt,97266.0,Multnomah County,"6400 SE 101st Ave, Portland, OR 97266, USA",45.4707988,-122.5603489
1316318,ec3sdme7,97266.0,Multnomah County,"6400 SE 101st Ave, Portland, OR 97266, USA",45.4707988,-122.5603489
1316400,ec35sean,97266.0,Multnomah County,"6400 SE 101st Ave, Portland, OR 97266, USA",45.4707988,-122.5603489
1317963,ec3apm9h,97266.0,Multnomah County,"6400 SE 101st Ave, Portland, OR 97266, USA",45.4707988,-122.5603489
1318372,ec3u7yt6,97266.0,Multnomah County,"6400 SE 101st Ave, Portland, OR 97266, USA",45.4707988,-122.5603489
1318374,ec35fjfn,97266.0,Multnomah County,"6400 SE 101st Ave, Portland, OR 97266, USA",45.4707988,-122.5603489
1332417,ec3uwxuw,97266.0,Multnomah County,"6400 SE 101st Ave, Portland, OR 97266, USA",45.4707988,-122.5603489
1336951,ec3m640t,97266.0,Multnomah County,"6400 SE 101st Ave, Portland, OR 97266, USA",45.4707988,-122.5603489
1336952,ec3s498a,97266.0,Multnomah County,"6400 SE 101st Ave, Portland, OR 97266, USA",45.4707988,-122.5603489
1338562,ec30hyep,97266.0,Multnomah County,"6400 SE 101st Ave, Portland, OR 97266, USA",45.4707988,-122.5603489
1340604,ec3j9rz1,97266.0,Multnomah County,"6400 SE 101st Ave, Portland, OR 97266, USA",45.4707988,-122.5603489
1353286,ec3mtfgn,97266.0,Multnomah County,"6400 SE 101st Ave, Portland, OR 97266, USA",45.4707988,-122.5603489
1363850,ec3ara1b,97266.0,Multnomah County,"6400 SE 101st Ave, Portland, OR 97266, USA",45.4707988,-122.5603489
1365526,ec3czac6,97266.0,Multnomah County,"6400 SE 101st Ave, Portland, OR 97266, USA",45.4707988,-122.5603489
1367651,ec3jsjf9,97266.0,Multnomah County,"6400 SE 101st Ave, Portland, OR 97266, USA",45.4707988,-122.5603489
1367652,ec3hyz05,97266.0,Multnomah County,"6400 SE 101st Ave, Portland, OR 97266, USA",45.4707988,-122.5603489
1371267,ec3p4ygb,97266.0,Multnomah County,"6400 SE 101st Ave, Portland, OR 97266, USA",45.4707988,-122.5603489
1372353,ec3prfru,97266.0,Multnomah County,"6400 SE 101st Ave, Portland, OR 97266, USA",45.4707988,-122.5603489
1374664,ec367dhz,97266.0,Multnomah County,"6400 SE 101st Ave, Portland, OR 97266, USA",45.4707988,-122.5603489
1375526,ec36rxzh,97266.0,Multnomah County,"6400 SE 101st Ave, Portland, OR 97266, USA",45.4707988,-122.5603489
1390745,ec30jb8h,97266.0,Multnomah County,"6400 SE 101st Ave, Portland, OR 97266, USA",45.4707988,-122.5603489
1391036,ec3s81x6,97266.0,Multnomah County,"6400 SE 101st Ave, Portland, OR 97266, USA",45.4707988,-122.5603489
1391037,ec3jhayp,97266.0,Multnomah County,"6400 SE 101st Ave, Portland, OR 97266, USA",45.4707988,-122.5603489
1403264,ec3e9dfj,97266.0,Multnomah County,"6400 SE 101st Ave, Portland, OR 97266, USA",45.4707988,-122.5603489
1411477,ec3nj4kw,97266.0,Multnomah County,"6400 SE 101st Ave, Portland, OR 97266, USA",45.4707988,-122.5603489
1500507,ec3gxrk1,97266.0,Multnomah County,"6400 SE 101st Ave, Portland, OR 97266, USA",45.4707988,-122.5603489
1500510,ec331wzd,97266.0,Multnomah County,"6400 SE 101st Ave, Portland, OR 97266, USA",45.4707988,-122.5603489
1500997,ec39qcrt,97266.0,Multnomah County,"6400 SE 101st Ave, Portland, OR 97266, USA",45.4707988,-122.5603489
1486687,ec3bqqnx,97266.0,Multnomah County,"6400 SE 101st Ave, Portland, OR 97266, USA",45.4707988,-122.5603489
1510910,ec3xrpce,97266.0,Multnomah County,"6400 SE 101st Ave, Portland, OR 97266, USA",45.4707988,-122.5603489
1518439,ec31r0g9,97266.0,Multnomah County,"6400 SE 101st Ave, Portland, OR 97266, USA",45.4707988,-122.5603489
1528999,ec3092ak,97266.0,Multnomah County,"6400 SE 101st Ave, Portland, OR 97266, USA",45.4707988,-122.5603489
1529001,ec3dmwdk,97266.0,Multnomah County,"6400 SE 101st Ave, Portland, OR 97266, USA",45.4707988,-122.5603489
1529005,ec3fdydy,97266.0,Multnomah County,"6400 SE 101st Ave, Portland, OR 97266, USA",45.4707988,-122.5603489
1529898,ec3cddrg,97266.0,Multnomah County,"6400 SE 101st Ave, Portland, OR 97266, USA",45.4707988,-122.5603489
1529954,ec3uah39,97266.0,Multnomah County,"6400 SE 101st Ave, Portland, OR 97266, USA",45.4707988,-122.5603489
1529955,ec37cjga,97266.0,Multnomah County,"6400 SE 101st Ave, Portland, OR 97266, USA",45.4707988,-122.5603489
1530276,ec3ufwny,97266.0,Multnomah County,"6400 SE 101st Ave, Portland, OR 97266, USA",45.4707988,-122.5603489
1540479,ec3p6fuz,97266.0,Multnomah County,"6400 SE 101st Ave, Portland, OR 97266, USA",45.4707988,-122.5603489
1540480,ec36udjq,97266.0,Multnomah County,"6400 SE 101st Ave, Portland, OR 97266, USA",45.4707988,-122.5603489
1540481,ec3901ng,97266.0,Multnomah County,"6400 SE 101st Ave, Portland, OR 97266, USA",45.4707988,-122.5603489
1544297,ec3nfxrw,97266.0,Multnomah County,"6400 SE 101st Ave, Portland, OR 97266, USA",45.4707988,-122.5603489
1544856,ec3csez4,97266.0,Multnomah County,"6400 SE 101st Ave, Portland, OR 97266, USA",45.4707988,-122.5603489
1544858,ec3w1atj,97266.0,Multnomah County,"6400 SE 101st Ave, Portland, OR 97266, USA",45.4707988,-122.5603489
1565526,ec3rcea7,97266.0,Multnomah County,"6400 SE 101st Ave, Portland, OR 97266, USA",45.4707988,-122.5603489
1565876,ec3fr7du,97266.0,Multnomah County,"6400 SE 101st Ave, Portland, OR 97266, USA",45.4707988,-122.5603489
1568055,ec350kkm,97266.0,Multnomah County,"6400 SE 101st Ave, Portland, OR 97266, USA",45.4707988,-122.5603489
1569445,ec37368x,97266.0,Multnomah County,"6400 SE 101st Ave, Portland, OR 97266, USA",45.4707988,-122.5603489
1575254,ec3ubzw0,97266.0,Multnomah County,"6400 SE 101st Ave, Portland, OR 97266, USA",45.4707988,-122.5603489
1575255,ec31jg3w,97266.0,Multnomah County,"6400 SE 101st Ave, Portland, OR 97266, USA",45.4707988,-122.5603489
1575356,ec3q32wf,97266.0,Multnomah County,"6400 SE 101st Ave, Portland, OR 97266, USA",45.4707988,-122.5603489
1575357,ec3ry93z,97266.0,Multnomah County,"6400 SE 101st Ave, Portland, OR 97266, USA",45.4707988,-122.5603489
1575362,ec3cmbgr,97266.0,Multnomah County,"6400 SE 101st Ave, Portland, OR 97266, USA",45.4707988,-122.5603489
1575363,ec3bgjyh,97266.0,Multnomah County,"6400 SE 101st Ave, Portland, OR 97266, USA",45.4707988,-122.5603489
1575365,ec3bh6bu,97266.0,Multnomah County,"6400 SE 101st Ave, Portland, OR 97266, USA",45.4707988,-122.5603489
1575380,ec39nu7y,97266.0,Multnomah County,"6400 SE 101st Ave, Portland, OR 97266, USA",45.4707988,-122.5603489
1575435,ec3yw7gh,97266.0,Multnomah County,"6400 SE 101st Ave, Portland, OR 97266, USA",45.4707988,-122.5603489
1575506,ec38p15p,97266.0,Multnomah County,"6400 SE 101st Ave, Portland, OR 97266, USA",45.4707988,-122.5603489
1575585,ec37bcnp,97266.0,Multnomah County,"6400 SE 101st Ave, Portland, OR 97266, USA",45.4707988,-122.5603489
1576451,ec3m621e,97266.0,Multnomah County,"6400 SE 101st Ave, Portland, OR 97266, USA",45.4707988,-122.5603489
1577079,ec323nsg,97266.0,Multnomah County,"6400 SE 101st Ave, Portland, OR 97266, USA",45.4707988,-122.5603489
1577228,ec3mnjkf,97266.0,Multnomah County,"6400 SE 101st Ave, Portland, OR 97266, USA",45.4707988,-122.5603489
1577229,ec3w4u6k,97266.0,Multnomah County,"6400 SE 101st Ave, Portland, OR 97266, USA",45.4707988,-122.5603489
1577231,ec3kae7t,97266.0,Multnomah County,"6400 SE 101st Ave, Portland, OR 97266, USA",45.4707988,-122.5603489
1578282,ec37jspx,97266.0,Multnomah County,"6400 SE 101st Ave, Portland, OR 97266, USA",45.4707988,-122.5603489
1578448,ec3mg2da,97266.0,Multnomah County,"6400 SE 101st Ave, Portland, OR 97266, USA",45.4707988,-122.5603489
1579675,ec37grm5,97266.0,Multnomah County,"6400 SE 101st Ave, Portland, OR 97266, USA",45.4707988,-122.5603489
1579740,ec306sy1,97266.0,Multnomah County,"6400 SE 101st Ave, Portland, OR 97266, USA",45.4707988,-122.5603489
1579749,ec3b469h,97266.0,Multnomah County,"6400 SE 101st Ave, Portland, OR 97266, USA",45.4707988,-122.5603489
1582029,ec3c6jxc,97266.0,Multnomah County,"6400 SE 101st Ave, Portland, OR 97266, USA",45.4707988,-122.5603489
1584808,ec3kejrq,97266.0,Multnomah County,"6400 SE 101st Ave, Portland, OR 97266, USA",45.4707988,-122.5603489
1584966,ec38cek7,97266.0,Multnomah County,"6400 SE 101st Ave, Portland, OR 97266, USA",45.4707988,-122.5603489
1584967,ec3hz4th,97266.0,Multnomah County,"6400 SE 101st Ave, Portland, OR 97266, USA",45.4707988,-122.5603489
1584968,ec3jfer4,97266.0,Multnomah County,"6400 SE 101st Ave, Portland, OR 97266, USA",45.4707988,-122.5603489
1584969,ec3bftm0,97266.0,Multnomah County,"6400 SE 101st Ave, Portland, OR 97266, USA",45.4707988,-122.5603489
1584970,ec3413bk,97266.0,Multnomah County,"6400 SE 101st Ave, Portland, OR 97266, USA",45.4707988,-122.5603489
1586262,ec32d3g5,97266.0,Multnomah County,"6400 SE 101st Ave, Portland, OR 97266, USA",45.4707988,-122.5603489
1587406,ec3ua5xk,97266.0,Multnomah County,"6400 SE 101st Ave, Portland, OR 97266, USA",45.4707988,-122.5603489
1587886,ec3udmdt,97266.0,Multnomah County,"6400 SE 101st Ave, Portland, OR 97266, USA",45.4707988,-122.5603489
1588029,ec3aradh,97266.0,Multnomah County,"6400 SE 101st Ave, Portland, OR 97266, USA",45.4707988,-122.5603489
1588259,ec3kq51w,97266.0,Multnomah County,"6400 SE 101st Ave, Portland, OR 97266, USA",45.4707988,-122.5603489
1588477,ec3xxeb9,97266.0,Multnomah County,"6400 SE 101st Ave, Portland, OR 97266, USA",45.4707988,-122.5603489
1588481,ec3zubub,97266.0,Multnomah County,"6400 SE 101st Ave, Portland, OR 97266, USA",45.4707988,-122.5603489
1589027,ec3wsm99,97266.0,Multnomah County,"6400 SE 101st Ave, Portland, OR 97266, USA",45.4707988,-122.5603489
1593787,ec340m4h,97266.0,Multnomah County,"6400 SE 101st Ave, Portland, OR 97266, USA",45.4707988,-122.5603489
1595387,ec3t6j9j,97266.0,Multnomah County,"6400 SE 101st Ave, Portland, OR 97266, USA",45.4707988,-122.5603489
1595532,ec3gpw7g,97266.0,Multnomah County,"6400 SE 101st Ave, Portland, OR 97266, USA",45.4707988,-122.5603489
1596208,ec34b0gs,97266.0,Multnomah County,"6400 SE 101st Ave, Portland, OR 97266, USA",45.4707988,-122.5603489
1596737,ec353mbj,97266.0,Multnomah County,"6400 SE 101st Ave, Portland, OR 97266, USA",45.4707988,-122.5603489
1598791,ec3fgwx5,97266.0,Multnomah County,"6400 SE 101st Ave, Portland, OR 97266, USA",45.4707988,-122.5603489
1599852,ec3xj367,97266.0,Multnomah County,"6400 SE 101st Ave, Portland, OR 97266, USA",45.4707988,-122.5603489
1595942,ec3sq0ez,97266.0,Multnomah County,"6400 SE 101st Ave, Portland, OR 97266, USA",45.4707988,-122.5603489
1599854,ec3j7pdx,97266.0,Multnomah County,"6400 SE 101st Ave, Portland, OR 97266, USA",45.4707988,-122.5603489
1599855,ec3hsy17,97266.0,Multnomah County,"6400 SE 101st Ave, Portland, OR 97266, USA",45.4707988,-122.5603489
1596509,ec3ndc9a,97266.0,Multnomah County,"6400 SE 101st Ave, Portland, OR 97266, USA",45.4707988,-122.5603489
1599860,ec3aupfq,97266.0,Multnomah County,"6400 SE 101st Ave, Portland, OR 97266, USA",45.4707988,-122.5603489
1599857,ec3mg65g,97266.0,Multnomah County,"6400 SE 101st Ave, Portland, OR 97266, USA",45.4707988,-122.5603489
1599862,ec3szayj,97266.0,Multnomah County,"6400 SE 101st Ave, Portland, OR 97266, USA",45.4707988,-122.5603489
1599864,ec3mak6t,97266.0,Multnomah County,"6400 SE 101st Ave, Portland, OR 97266, USA",45.4707988,-122.5603489
1599865,ec398c88,97266.0,Multnomah County,"6400 SE 101st Ave, Portland, OR 97266, USA",45.4707988,-122.5603489
1599866,ec3xp63e,97266.0,Multnomah County,"6400 SE 101st Ave, Portland, OR 97266, USA",45.4707988,-122.5603489
1599867,ec3ptg81,97266.0,Multnomah County,"6400 SE 101st Ave, Portland, OR 97266, USA",45.4707988,-122.5603489
1599868,ec31zxdb,97266.0,Multnomah County,"6400 SE 101st Ave, Portland, OR 97266, USA",45.4707988,-122.5603489
1599869,ec3r7c4a,97266.0,Multnomah County,"6400 SE 101st Ave, Portland, OR 97266, USA",45.4707988,-122.5603489
1599872,ec3309ya,97266.0,Multnomah County,"6400 SE 101st Ave, Portland, OR 97266, USA",45.4707988,-122.5603489
1599873,ec3qq6n7,97266.0,Multnomah County,"6400 SE 101st Ave, Portland, OR 97266, USA",45.4707988,-122.5603489
1599874,ec3mxtxk,97266.0,Multnomah County,"6400 SE 101st Ave, Portland, OR 97266, USA",45.4707988,-122.5603489
1599875,ec39m8q7,97266.0,Multnomah County,"6400 SE 101st Ave, Portland, OR 97266, USA",45.4707988,-122.5603489
1599876,ec3hhngn,97266.0,Multnomah County,"6400 SE 101st Ave, Portland, OR 97266, USA",45.4707988,-122.5603489
1599878,ec37dwas,97266.0,Multnomah County,"6400 SE 101st Ave, Portland, OR 97266, USA",45.4707988,-122.5603489
1599880,ec33wenh,97266.0,Multnomah County,"6400 SE 101st Ave, Portland, OR 97266, USA",45.4707988,-122.5603489
1599881,ec3jkqaa,97266.0,Multnomah County,"6400 SE 101st Ave, Portland, OR 97266, USA",45.4707988,-122.5603489
1599883,ec3cbf76,97266.0,Multnomah County,"6400 SE 101st Ave, Portland, OR 97266, USA",45.4707988,-122.5603489
1599884,ec3e6ecb,97266.0,Multnomah County,"6400 SE 101st Ave, Portland, OR 97266, USA",45.4707988,-122.5603489
1599885,ec36u778,97266.0,Multnomah County,"6400 SE 101st Ave, Portland, OR 97266, USA",45.4707988,-122.5603489
1599886,ec3cj3kt,97266.0,Multnomah County,"6400 SE 101st Ave, Portland, OR 97266, USA",45.4707988,-122.5603489
1599887,ec3qtm0t,97266.0,Multnomah County,"6400 SE 101st Ave, Portland, OR 97266, USA",45.4707988,-122.5603489
1599888,ec3keq8n,97266.0,Multnomah County,"6400 SE 101st Ave, Portland, OR 97266, USA",45.4707988,-122.5603489
1599889,ec38wgat,97266.0,Multnomah County,"6400 SE 101st Ave, Portland, OR 97266, USA",45.4707988,-122.5603489
1599894,ec35k2gm,97266.0,Multnomah County,"6400 SE 101st Ave, Portland, OR 97266, USA",45.4707988,-122.5603489
1599895,ec3dbph8,97266.0,Multnomah County,"6400 SE 101st Ave, Portland, OR 97266, USA",45.4707988,-122.5603489
1599896,ec3n30wy,97266.0,Multnomah County,"6400 SE 101st Ave, Portland, OR 97266, USA",45.4707988,-122.5603489
1599897,ec3cfkbh,97266.0,Multnomah County,"6400 SE 101st Ave, Portland, OR 97266, USA",45.4707988,-122.5603489
1599899,ec3zduww,97266.0,Multnomah County,"6400 SE 101st Ave, Portland, OR 97266, USA",45.4707988,-122.5603489
1599901,ec3s76eg,97266.0,Multnomah County,"6400 SE 101st Ave, Portland, OR 97266, USA",45.4707988,-122.5603489
1599904,ec3d9a3e,97266.0,Multnomah County,"6400 SE 101st Ave, Portland, OR 97266, USA",45.4707988,-122.5603489
1599935,ec3fdcx1,97266.0,Multnomah County,"6400 SE 101st Ave, Portland, OR 97266, USA",45.4707988,-122.5603489
1599936,ec3r0m0k,97266.0,Multnomah County,"6400 SE 101st Ave, Portland, OR 97266, USA",45.4707988,-122.5603489
1599937,ec3ek3dd,97266.0,Multnomah County,"6400 SE 101st Ave, Portland, OR 97266, USA",45.4707988,-122.5603489
1599938,ec3dp4nh,97266.0,Multnomah County,"6400 SE 101st Ave, Portland, OR 97266, USA",45.4707988,-122.5603489
1599939,ec3bm69t,97266.0,Multnomah County,"6400 SE 101st Ave, Portland, OR 97266, USA",45.4707988,-122.5603489
1599940,ec3x10hc,97266.0,Multnomah County,"6400 SE 101st Ave, Portland, OR 97266, USA",45.4707988,-122.5603489
1599941,ec3mwhxh,97266.0,Multnomah County,"6400 SE 101st Ave, Portland, OR 97266, USA",45.4707988,-122.5603489
1599942,ec3p08gr,97266.0,Multnomah County,"6400 SE 101st Ave, Portland, OR 97266, USA",45.4707988,-122.5603489
1599943,ec3ts2z5,97266.0,Multnomah County,"6400 SE 101st Ave, Portland, OR 97266, USA",45.4707988,-122.5603489
1599944,ec381ca5,97266.0,Multnomah County,"6400 SE 101st Ave, Portland, OR 97266, USA",45.4707988,-122.5603489
1599945,ec35puyj,97266.0,Multnomah County,"6400 SE 101st Ave, Portland, OR 97266, USA",45.4707988,-122.5603489
1599946,ec3a141a,97266.0,Multnomah County,"6400 SE 101st Ave, Portland, OR 97266, USA",45.4707988,-122.5603489
1599947,ec3pdh83,97266.0,Multnomah County,"6400 SE 101st Ave, Portland, OR 97266, USA",45.4707988,-122.5603489
1599949,ec3uujjd,97266.0,Multnomah County,"6400 SE 101st Ave, Portland, OR 97266, USA",45.4707988,-122.5603489
1599948,ec3cn4mc,97266.0,Multnomah County,"6400 SE 101st Ave, Portland, OR 97266, USA",45.4707988,-122.5603489
1599951,ec3hbppc,97266.0,Multnomah County,"6400 SE 101st Ave, Portland, OR 97266, USA",45.4707988,-122.5603489
1599950,ec379kew,97266.0,Multnomah County,"6400 SE 101st Ave, Portland, OR 97266, USA",45.4707988,-122.5603489
1529898,ec3jpeb9,97217.0,Multnomah County,"5225 N Channel Ave, Portland, OR 97217, USA",45.5610747,-122.7155495
1584970,ec3cq0ag,97217.0,Multnomah County,"5225 N Channel Ave, Portland, OR 97217, USA",45.5610747,-122.7155495
1599978,ec38nz09,97266.0,Multnomah County,"6400 SE 101st Ave, Portland, OR 97266, USA",45.4707988,-122.5603489
2108282C,ec3d26tf,97266.0,Multnomah County,"6400 SE 101st Ave, Portland, OR 97266, USA",45.4707988,-122.5603489
2315365C,ec3buet0,97266.0,Multnomah County,"6400 SE 101st Ave, Portland, OR 97266, USA",45.4707988,-122.5603489
2308161C,ec328826,97266.0,Multnomah County,"6400 SE 101st Ave, Portland, OR 97266, USA",45.4707988,-122.5603489
1599878,ec3p20eh,97217.0,Multnomah County,"5225 N Channel Ave, Portland, OR 97217, USA",45.5610747,-122.7155495
1599878,ec3ba8f1,97217.0,Multnomah County,"5225 N Channel Ave, Portland, OR 97217, USA",45.5610747,-122.7155495
1599926,ec3wxr16,97217.0,Multnomah County,"5225 N Channel Ave, Portland, OR 97217, USA",45.5610747,-122.7155495
3426737,ec3065r7,97266.0,Multnomah County,"6400 SE 101st Ave, Portland, OR 97266, USA",45.4707988,-122.5603489
1308161C,ec3k6syw,97266.0,Multnomah County,"6400 SE 101st Ave, Portland, OR 97266, USA",45.4707988,-122.5603489
Mix 240KGAR0S0,ec3rk0yt,97124.0,Washington Co.,"103 S 1st Ave, Hillsboro, OR 97124, United States",45.52253,-122.99018
1308376,ec3172gk,97266.0,Multnomah County,"6400 SE 101st Ave, Portland, OR 97266, USA",45.4707988,-122.5603489
1308376S,ec3ptdpt,97266.0,Multnomah County,"6400 SE 101st Ave, Portland, OR 97266, USA",45.4707988,-122.5603489
1353286,ec3e0c4y,97266.0,Multnomah County,"6400 SE 101st Ave, Portland, OR 97266, USA",45.4707988,-122.5603489
1353286S,ec3hta3k,97266.0,Multnomah County,"6400 SE 101st Ave, Portland, OR 97266, USA",45.4707988,-122.5603489
1575362,ec3grpc2,97266.0,Multnomah County,"6400 SE 101st Ave, Portland, OR 97266, USA",45.4707988,-122.5603489
1589027,ec3f84qn,97266.0,Multnomah County,"6400 SE 101st Ave, Portland, OR 97266, USA",45.4707988,-122.5603489
1308207,ec386ykx,97266.0,Multnomah County,"6400 SE 101st Ave, Portland, OR 97266, USA",45.4707988,-122.5603489
1308207S,ec3nrjfk,97266.0,Multnomah County,"6400 SE 101st Ave, Portland, OR 97266, USA",45.4707988,-122.5603489
1575362S,ec3j2yyb,97266.0,Multnomah County,"6400 SE 101st Ave, Portland, OR 97266, USA",45.4707988,-122.5603489
2000 PSI GROUT,ec32usgn,nan,Crook County,"OR-126, Prineville, OR, USA",44.2857134,-120.888128
1587406,ec3e5rhn,97266.0,Multnomah County,"6400 SE 101st Ave, Portland, OR 97266, USA",45.4707988,-122.5603489
1599885,ec3qqbhh,97266.0,Multnomah County,"6400 SE 101st Ave, Portland, OR 97266, USA",45.4707988,-122.5603489
1308164,ec30bcy6,97266.0,Multnomah County,"6400 SE 101st Ave, Portland, OR 97266, USA",45.4707988,-122.5603489
1308194,ec377j55,97266.0,Multnomah County,"6400 SE 101st Ave, Portland, OR 97266, USA",45.4707988,-122.5603489
1308197,ec3rs5en,97266.0,Multnomah County,"6400 SE 101st Ave, Portland, OR 97266, USA",45.4707988,-122.5603489
1308161,ec3hz5dz,97266.0,Multnomah County,"6400 SE 101st Ave, Portland, OR 97266, USA",45.4707988,-122.5603489
1308426,ec3u2duk,97266.0,Multnomah County,"6400 SE 101st Ave, Portland, OR 97266, USA",45.4707988,-122.5603489
1316318,ec30bsmc,97266.0,Multnomah County,"6400 SE 101st Ave, Portland, OR 97266, USA",45.4707988,-122.5603489
1530276,ec3ftuuy,97266.0,Multnomah County,"6400 SE 101st Ave, Portland, OR 97266, USA",45.4707988,-122.5603489
Mix 1584970,ec3djp7a,97217.0,Multnomah County,"5225 N Channel Ave, Portland, OR 97217, USA",45.5610747,-122.7155495
1391037,ec3rh2uz,97266.0,Multnomah County,"6400 SE 101st Ave, Portland, OR 97266, USA",45.4707988,-122.5603489
1391037S,ec3z3bqu,97266.0,Multnomah County,"6400 SE 101st Ave, Portland, OR 97266, USA",45.4707988,-122.5603489
Mix 1599878,ec3sgh9h,97217.0,Multnomah County,"5225 N Channel Ave, Portland, OR 97217, USA",45.5610747,-122.7155495
1587406S,ec3u5czg,97266.0,Multnomah County,"6400 SE 101st Ave, Portland, OR 97266, USA",45.4707988,-122.5603489
Mix 1599926,ec3hwbns,97217.0,Multnomah County,"5225 N Channel Ave, Portland, OR 97217, USA",45.5610747,-122.7155495
50TU429A,ec385fnr,97756.0,Deschutes,"1615 Southwest Veterans Way, Redmond, OR 97756",44.2619,-121.17477
Mix 1028120,ec3cfr2x,97266.0,Multnomah County,"6400 SE 101st Ave, Portland, OR 97266, USA",45.4707988,-122.5603489
Mix 1028120S,ec34ye7m,97266.0,Multnomah County,"6400 SE 101st Ave, Portland, OR 97266, USA",45.4707988,-122.5603489
Mix 1104808,ec3xbxgr,97266.0,Multnomah County,"6400 SE 101st Ave, Portland, OR 97266, USA",45.4707988,-122.5603489
Mix 1308074S,ec3r619c,97266.0,Multnomah County,"6400 SE 101st Ave, Portland, OR 97266, USA",45.4707988,-122.5603489
Mix 1108197,ec37gur9,97266.0,Multnomah County,"6400 SE 101st Ave, Portland, OR 97266, USA",45.4707988,-122.5603489
Mix 1159515,ec3qdqeb,97266.0,Multnomah County,"6400 SE 101st Ave, Portland, OR 97266, USA",45.4707988,-122.5603489
Mix 1108120,ec3aqqyf,97266.0,Multnomah County,"6400 SE 101st Ave, Portland, OR 97266, USA",45.4707988,-122.5603489
Mix 1159513,ec3far5t,97266.0,Multnomah County,"6400 SE 101st Ave, Portland, OR 97266, USA",45.4707988,-122.5603489
Mix 1246857S,ec3kqm7s,97266.0,Multnomah County,"6400 SE 101st Ave, Portland, OR 97266, USA",45.4707988,-122.5603489
Mix 1308127,ec3utth9,97266.0,Multnomah County,"6400 SE 101st Ave, Portland, OR 97266, USA",45.4707988,-122.5603489
Mix 1028116S,ec3kqk30,97266.0,Multnomah County,"6400 SE 101st Ave, Portland, OR 97266, USA",45.4707988,-122.5603489
Mix 1028118,ec3k7xdc,97266.0,Multnomah County,"6400 SE 101st Ave, Portland, OR 97266, USA",45.4707988,-122.5603489
Mix 1028116,ec3kesc7,97266.0,Multnomah County,"6400 SE 101st Ave, Portland, OR 97266, USA",45.4707988,-122.5603489
Mix 1159514,ec37w68r,97266.0,Multnomah County,"6400 SE 101st Ave, Portland, OR 97266, USA",45.4707988,-122.5603489
Mix 1282431,ec368f84,97266.0,Multnomah County,"6400 SE 101st Ave, Portland, OR 97266, USA",45.4707988,-122.5603489
Mix 1308130S,ec30edm9,97266.0,Multnomah County,"6400 SE 101st Ave, Portland, OR 97266, USA",45.4707988,-122.5603489
Mix 1308146,ec32mn5h,97266.0,Multnomah County,"6400 SE 101st Ave, Portland, OR 97266, USA",45.4707988,-122.5603489
Mix 1308146.,ec3jm3at,97266.0,Multnomah County,"6400 SE 101st Ave, Portland, OR 97266, USA",45.4707988,-122.5603489
Mix 1308108,ec37778g,97266.0,Multnomah County,"6400 SE 101st Ave, Portland, OR 97266, USA",45.4707988,-122.5603489
Mix 1308147.,ec321gxe,97266.0,Multnomah County,"6400 SE 101st Ave, Portland, OR 97266, USA",45.4707988,-122.5603489
Mix 1028335,ec3pjn5h,97266.0,Multnomah County,"6400 SE 101st Ave, Portland, OR 97266, USA",45.4707988,-122.5603489
Mix 1308161C,ec35k0cg,97266.0,Multnomah County,"6400 SE 101st Ave, Portland, OR 97266, USA",45.4707988,-122.5603489
Mix 1246857,ec344kb4,97266.0,Multnomah County,"6400 SE 101st Ave, Portland, OR 97266, USA",45.4707988,-122.5603489
Mix 1308192,ec3jqsh2,97266.0,Multnomah County,"6400 SE 101st Ave, Portland, OR 97266, USA",45.4707988,-122.5603489
Mix 1308160S,ec3hhbqq,97266.0,Multnomah County,"6400 SE 101st Ave, Portland, OR 97266, USA",45.4707988,-122.5603489
Mix 1308161,ec3tny87,97266.0,Multnomah County,"6400 SE 101st Ave, Portland, OR 97266, USA",45.4707988,-122.5603489
Mix 1308148,ec34yt44,97266.0,Multnomah County,"6400 SE 101st Ave, Portland, OR 97266, USA",45.4707988,-122.5603489
Mix 1308147,ec31s11z,97266.0,Multnomah County,"6400 SE 101st Ave, Portland, OR 97266, USA",45.4707988,-122.5603489
Mix 1028166,ec31b8bm,97266.0,Multnomah County,"6400 SE 101st Ave, Portland, OR 97266, USA",45.4707988,-122.5603489
Mix 1028166S,ec3f9w99,97266.0,Multnomah County,"6400 SE 101st Ave, Portland, OR 97266, USA",45.4707988,-122.5603489
Mix 1308207,ec3ygf0x,97266.0,Multnomah County,"6400 SE 101st Ave, Portland, OR 97266, USA",45.4707988,-122.5603489
Mix 1308074,ec3u24f7,97266.0,Multnomah County,"6400 SE 101st Ave, Portland, OR 97266, USA",45.4707988,-122.5603489
Mix 1308164.,ec3h8cxy,97266.0,Multnomah County,"6400 SE 101st Ave, Portland, OR 97266, USA",45.4707988,-122.5603489
Mix 1308159,ec36dbb5,97266.0,Multnomah County,"6400 SE 101st Ave, Portland, OR 97266, USA",45.4707988,-122.5603489
Mix 1028118S,ec3zjm3a,97266.0,Multnomah County,"6400 SE 101st Ave, Portland, OR 97266, USA",45.4707988,-122.5603489
Mix 1308179,ec3kjpsy,97266.0,Multnomah County,"6400 SE 101st Ave, Portland, OR 97266, USA",45.4707988,-122.5603489
Mix 1308161S.,ec3sk5gk,97266.0,Multnomah County,"6400 SE 101st Ave, Portland, OR 97266, USA",45.4707988,-122.5603489
Mix 1282431S,ec3zkq3y,97266.0,Multnomah County,"6400 SE 101st Ave, Portland, OR 97266, USA",45.4707988,-122.5603489
Mix 1308161S,ec35r258,97266.0,Multnomah County,"6400 SE 101st Ave, Portland, OR 97266, USA",45.4707988,-122.5603489
Mix 1308183S,ec34489x,97266.0,Multnomah County,"6400 SE 101st Ave, Portland, OR 97266, USA",45.4707988,-122.5603489
Mix 1308129,ec37qpy9,97266.0,Multnomah County,"6400 SE 101st Ave, Portland, OR 97266, USA",45.4707988,-122.5603489
Mix 1108197S,ec3wqasp,97266.0,Multnomah County,"6400 SE 101st Ave, Portland, OR 97266, USA",45.4707988,-122.5603489
Mix 1308180,ec3xry3p,97266.0,Multnomah County,"6400 SE 101st Ave, Portland, OR 97266, USA",45.4707988,-122.5603489
Mix 1308207S,ec33khnm,97266.0,Multnomah County,"6400 SE 101st Ave, Portland, OR 97266, USA",45.4707988,-122.5603489
Mix 1308144,ec3fzacz,97266.0,Multnomah County,"6400 SE 101st Ave, Portland, OR 97266, USA",45.4707988,-122.5603489
Mix 1308159S,ec3x051y,97266.0,Multnomah County,"6400 SE 101st Ave, Portland, OR 97266, USA",45.4707988,-122.5603489
Mix 1308164,ec3uegt8,97266.0,Multnomah County,"6400 SE 101st Ave, Portland, OR 97266, USA",45.4707988,-122.5603489
Mix 1308160,ec37fdsh,97266.0,Multnomah County,"6400 SE 101st Ave, Portland, OR 97266, USA",45.4707988,-122.5603489
Mix 1308183,ec3ap6ar,97266.0,Multnomah County,"6400 SE 101st Ave, Portland, OR 97266, USA",45.4707988,-122.5603489
Mix 1308195,ec3hw5br,97266.0,Multnomah County,"6400 SE 101st Ave, Portland, OR 97266, USA",45.4707988,-122.5603489
Mix 1308166S,ec3f1rdk,97266.0,Multnomah County,"6400 SE 101st Ave, Portland, OR 97266, USA",45.4707988,-122.5603489
Mix 1308127S,ec3fcp3e,97266.0,Multnomah County,"6400 SE 101st Ave, Portland, OR 97266, USA",45.4707988,-122.5603489
Mix 1308140,ec39e8ag,97266.0,Multnomah County,"6400 SE 101st Ave, Portland, OR 97266, USA",45.4707988,-122.5603489
Mix 1308180S,ec3j3270,97266.0,Multnomah County,"6400 SE 101st Ave, Portland, OR 97266, USA",45.4707988,-122.5603489
Mix 1308220C,ec3e8w69,97266.0,Multnomah County,"6400 SE 101st Ave, Portland, OR 97266, USA",45.4707988,-122.5603489
Mix 1308194S,ec3cxxrp,97266.0,Multnomah County,"6400 SE 101st Ave, Portland, OR 97266, USA",45.4707988,-122.5603489
Mix 1308208S,ec3p4cm4,97266.0,Multnomah County,"6400 SE 101st Ave, Portland, OR 97266, USA",45.4707988,-122.5603489
Mix 1308219,ec35997a,97266.0,Multnomah County,"6400 SE 101st Ave, Portland, OR 97266, USA",45.4707988,-122.5603489
Mix 1308041,ec3nwgrw,97266.0,Multnomah County,"6400 SE 101st Ave, Portland, OR 97266, USA",45.4707988,-122.5603489
Mix 1308207C,ec3g8hwj,97266.0,Multnomah County,"6400 SE 101st Ave, Portland, OR 97266, USA",45.4707988,-122.5603489
Mix 1138166,ec3h939u,97266.0,Multnomah County,"6400 SE 101st Ave, Portland, OR 97266, USA",45.4707988,-122.5603489
Mix 1308194,ec3w2zm8,97266.0,Multnomah County,"6400 SE 101st Ave, Portland, OR 97266, USA",45.4707988,-122.5603489
Mix 1308184,ec3bc90f,97266.0,Multnomah County,"6400 SE 101st Ave, Portland, OR 97266, USA",45.4707988,-122.5603489
Mix 1308164S,ec3p1033,97266.0,Multnomah County,"6400 SE 101st Ave, Portland, OR 97266, USA",45.4707988,-122.5603489
Mix 1308197.,ec3cr79y,97266.0,Multnomah County,"6400 SE 101st Ave, Portland, OR 97266, USA",45.4707988,-122.5603489
Mix 1308152,ec3wsy9x,97266.0,Multnomah County,"6400 SE 101st Ave, Portland, OR 97266, USA",45.4707988,-122.5603489
Mix 1308244,ec3sn7e8,97266.0,Multnomah County,"6400 SE 101st Ave, Portland, OR 97266, USA",45.4707988,-122.5603489
Mix 1308197,ec3cm1kb,97266.0,Multnomah County,"6400 SE 101st Ave, Portland, OR 97266, USA",45.4707988,-122.5603489
Mix 1308197S,ec3yka2w,97266.0,Multnomah County,"6400 SE 101st Ave, Portland, OR 97266, USA",45.4707988,-122.5603489
Mix 1308166,ec3uam0n,97266.0,Multnomah County,"6400 SE 101st Ave, Portland, OR 97266, USA",45.4707988,-122.5603489
Mix 1308193,ec3p5f0a,97266.0,Multnomah County,"6400 SE 101st Ave, Portland, OR 97266, USA",45.4707988,-122.5603489
Mix 1308219S,ec36prkx,97266.0,Multnomah County,"6400 SE 101st Ave, Portland, OR 97266, USA",45.4707988,-122.5603489
Mix 1308192S,ec32kyk0,97266.0,Multnomah County,"6400 SE 101st Ave, Portland, OR 97266, USA",45.4707988,-122.5603489
Mix 1308242,ec3ejt8a,97266.0,Multnomah County,"6400 SE 101st Ave, Portland, OR 97266, USA",45.4707988,-122.5603489
Mix 1308141,ec380qy6,97266.0,Multnomah County,"6400 SE 101st Ave, Portland, OR 97266, USA",45.4707988,-122.5603489
Mix 1308219C,ec3kxzj9,97266.0,Multnomah County,"6400 SE 101st Ave, Portland, OR 97266, USA",45.4707988,-122.5603489
Mix 1372353,ec3b90ak,97266.0,Multnomah County,"6400 SE 101st Ave, Portland, OR 97266, USA",45.4707988,-122.5603489
Mix 1308248,ec3cr3qs,97266.0,Multnomah County,"6400 SE 101st Ave, Portland, OR 97266, USA",45.4707988,-122.5603489
Mix 1375526,ec32pu99,97266.0,Multnomah County,"6400 SE 101st Ave, Portland, OR 97266, USA",45.4707988,-122.5603489
Mix 1529898,ec3esw41,97217.0,Multnomah County,"5225 N Channel Ave, Portland, OR 97217, USA",45.5610747,-122.7155495
Mix 1584970,ec3gtx2x,97217.0,Multnomah County,"5225 N Channel Ave, Portland, OR 97217, USA",45.5610747,-122.7155495
Mix 1599878,ec3jhckw,97217.0,Multnomah County,"5225 N Channel Ave, Portland, OR 97217, USA",45.5610747,-122.7155495
Mix 1599926,ec3t5s9j,97217.0,Multnomah County,"5225 N Channel Ave, Portland, OR 97217, USA",45.5610747,-122.7155495
1028166,ec32ajg3,97266.0,Multnomah County,"6400 SE 101st Ave, Portland, OR 97266, USA",45.4707988,-122.5603489
1028166S,ec30y11s,97266.0,Multnomah County,"6400 SE 101st Ave, Portland, OR 97266, USA",45.4707988,-122.5603489
1308159,ec3f6rpy,97266.0,Multnomah County,"6400 SE 101st Ave, Portland, OR 97266, USA",45.4707988,-122.5603489
1308159S,ec3zry3b,97266.0,Multnomah County,"6400 SE 101st Ave, Portland, OR 97266, USA",45.4707988,-122.5603489
1336952S,ec31m873,97266.0,Multnomah County,"6400 SE 101st Ave, Portland, OR 97266, USA",45.4707988,-122.5603489
1336952,ec3rj8t7,97266.0,Multnomah County,"6400 SE 101st Ave, Portland, OR 97266, USA",45.4707988,-122.5603489
Mix 996,ec3jzjbb,97124.0,Washington,"Northwest Amberwood Drive, Hillsboro, OR 97124",45.53583,-122.88088
Mix 996,ec3bp120,97210.0,Multnomah,"5034 Northwest Front Avenue, Portland, OR 97210",45.56114,-122.73264
1319884S,ec3r2kyn,97266.0,Multnomah County,"6400 SE 101st Ave, Portland, OR 97266, USA",45.4707988,-122.5603489
1308164.,ec3jrpp1,97266.0,Multnomah County,"6400 SE 101st Ave, Portland, OR 97266, USA",45.4707988,-122.5603489
1308219C,ec37t9tz,97266.0,Multnomah County,"6400 SE 101st Ave, Portland, OR 97266, USA",45.4707988,-122.5603489
308000,ec3j1hgs,97317.0,"Polk, Marion","4105 Lancaster Drive Southeast, Salem, OR 97317",44.90046,-122.97044
309000,ec3m7t87,97317.0,Marion County,"4105 Lancaster Dr SE, Salem, OR 97317, USA",44.9010608,-122.9712008
390231,ec3ytdad,97317.0,"Polk, Marion","4105 Lancaster Drive Southeast, Salem, OR 97317",44.90046,-122.97044
390232,ec3cpsun,97317.0,"Polk, Marion","4105 Lancaster Drive Southeast, Salem, OR 97317",44.90046,-122.97044
10 SK SAND ONLY GROUT,ec3qwutc,97140.0,Washington Co.,"12000 SW Tonquin Rd, Sherwood-Tualatin South, OR 97140, United States",45.34715,-122.79892
2308164,ec34b5hq,97266.0,Multnomah County,"6400 SE 101st Ave, Portland, OR 97266, USA",45.4707988,-122.5603489
2308207,ec3sa3n8,97266.0,Multnomah County,"6400 SE 101st Ave, Portland, OR 97266, USA",45.4707988,-122.5603489
2315362,ec324y4e,97266.0,Multnomah County,"6400 SE 101st Ave, Portland, OR 97266, USA",45.4707988,-122.5603489
2315365C,ec3tmmpd,97266.0,Multnomah County,"6400 SE 101st Ave, Portland, OR 97266, USA",45.4707988,-122.5603489
3403286,ec3peq0y,97266.0,Multnomah County,"6400 SE 101st Ave, Portland, OR 97266, USA",45.4707988,-122.5603489
10 SK SAND ONLY GROUT,ec3qq3ex,97124.0,Washington Co.,"103 S 1st Ave, Hillsboro, OR 97124, United States",45.52253,-122.99018
3408376,ec39ynyk,97266.0,Multnomah County,"6400 SE 101st Ave, Portland, OR 97266, USA",45.4707988,-122.5603489
3411037,ec3bhxw2,97266.0,Multnomah County,"6400 SE 101st Ave, Portland, OR 97266, USA",45.4707988,-122.5603489
3419001,ec329nny,97266.0,Multnomah County,"6400 SE 101st Ave, Portland, OR 97266, USA",45.4707988,-122.5603489
3426737,ec3j94fr,97266.0,Multnomah County,"6400 SE 101st Ave, Portland, OR 97266, USA",45.4707988,-122.5603489
3428207,ec3gs0k0,97266.0,Multnomah County,"6400 SE 101st Ave, Portland, OR 97266, USA",45.4707988,-122.5603489
5LTW947,ec3w5qf7,97266.0,Multnomah County,"6400 SE 101st Ave, Portland, OR 97266, USA",45.4707988,-122.5603489
3411037,ec3kppat,97266.0,Multnomah County,"6400 SE 101st Ave, Portland, OR 97266, USA",45.4707988,-122.5603489
10 SK SAND ONLY GROUT,ec3whgdt,97060.0,Multnomah Co.,"5540 NE Sundial Rd, Troutdale, OR 97060, United States",45.5605517,-122.4077134
Mix 1319884,ec3x6afb,97266.0,Multnomah County,"6400 SE 101st Ave, Portland, OR 97266, USA",45.4707988,-122.5603489
Mix 1308143,ec37920r,97266.0,Multnomah County,"6400 SE 101st Ave, Portland, OR 97266, USA",45.4707988,-122.5603489
Mix 1308129,ec3hhqb8,97266.0,Multnomah County,"6400 SE 101st Ave, Portland, OR 97266, USA",45.4707988,-122.5603489
Mix 1028335,ec3j68xe,97266.0,Multnomah County,"6400 SE 101st Ave, Portland, OR 97266, USA",45.4707988,-122.5603489
Mix 1308425,ec3tugd0,97266.0,Multnomah County,"6400 SE 101st Ave, Portland, OR 97266, USA",45.4707988,-122.5603489
Mix 1308108,ec3cat6b,97266.0,Multnomah County,"6400 SE 101st Ave, Portland, OR 97266, USA",45.4707988,-122.5603489
Mix 1308159S,ec3jdq19,97266.0,Multnomah County,"6400 SE 101st Ave, Portland, OR 97266, USA",45.4707988,-122.5603489
Mix 1570623,ec3z5ct9,97266.0,Multnomah County,"6400 SE 101st Ave, Portland, OR 97266, USA",45.4707988,-122.5603489
Mix 1308164S,ec3npkbx,97266.0,Multnomah County,"6400 SE 101st Ave, Portland, OR 97266, USA",45.4707988,-122.5603489
Mix 1308164,ec3jt9yw,97266.0,Multnomah County,"6400 SE 101st Ave, Portland, OR 97266, USA",45.4707988,-122.5603489
Mix 1308192,ec3sjqdx,97266.0,Multnomah County,"6400 SE 101st Ave, Portland, OR 97266, USA",45.4707988,-122.5603489
Mix 1308197S,ec3tsn09,97266.0,Multnomah County,"6400 SE 101st Ave, Portland, OR 97266, USA",45.4707988,-122.5603489
Mix 1308249,ec330r5k,97266.0,Multnomah County,"6400 SE 101st Ave, Portland, OR 97266, USA",45.4707988,-122.5603489
Mix 1308336,ec3zhjtf,97266.0,Multnomah County,"6400 SE 101st Ave, Portland, OR 97266, USA",45.4707988,-122.5603489
Mix 1308342,ec35pb28,97266.0,Multnomah County,"6400 SE 101st Ave, Portland, OR 97266, USA",45.4707988,-122.5603489
Mix 1308395,ec3e8y3b,97266.0,Multnomah County,"6400 SE 101st Ave, Portland, OR 97266, USA",45.4707988,-122.5603489
Mix 1587565,ec3ztwdq,97266.0,Multnomah County,"6400 SE 101st Ave, Portland, OR 97266, USA",45.4707988,-122.5603489
Mix 1317963S,ec3yg1nq,97266.0,Multnomah County,"6400 SE 101st Ave, Portland, OR 97266, USA",45.4707988,-122.5603489
Mix 1372353,ec3t0hp7,97266.0,Multnomah County,"6400 SE 101st Ave, Portland, OR 97266, USA",45.4707988,-122.5603489
Mix 1374664,ec3f6q9w,97266.0,Multnomah County,"6400 SE 101st Ave, Portland, OR 97266, USA",45.4707988,-122.5603489
Mix 1573502,ec35pk9b,97266.0,Multnomah,"6400 Southeast 101st Avenue, Portland, OR 97266",45.47547,-122.5591
Mix 1392472,ec3y2jy4,97266.0,Multnomah County,"6400 SE 101st Ave, Portland, OR 97266, USA",45.4707988,-122.5603489
Mix 1500507,ec373gg8,97266.0,Multnomah County,"6400 SE 101st Ave, Portland, OR 97266, USA",45.4707988,-122.5603489
Mix 1500998,ec31x6th,97266.0,Multnomah County,"6400 SE 101st Ave, Portland, OR 97266, USA",45.4707988,-122.5603489
Mix 1518439S,ec3gcsrw,97266.0,Multnomah County,"6400 SE 101st Ave, Portland, OR 97266, USA",45.4707988,-122.5603489
Mix 1529898,ec3838zx,97266.0,Multnomah,"6400 Southeast 101st Avenue, Portland, OR 97266",45.47547,-122.5591
Mix 1540481,ec3gy3bh,97266.0,Multnomah County,"6400 SE 101st Ave, Portland, OR 97266, USA",45.4707988,-122.5603489
Mix 1587672,ec3b09gw,97266.0,Multnomah County,"6400 SE 101st Ave, Portland, OR 97266, USA",45.4707988,-122.5603489
Mix 1588252,ec361a6y,97266.0,Multnomah County,"6400 SE 101st Ave, Portland, OR 97266, USA",45.4707988,-122.5603489
Mix 1575356S,ec3p5ujz,97266.0,Multnomah County,"6400 SE 101st Ave, Portland, OR 97266, USA",45.4707988,-122.5603489
Mix 1562767,ec3b77g2,97266.0,Multnomah County,"6400 SE 101st Ave, Portland, OR 97266, USA",45.4707988,-122.5603489
Mix 1575380,ec3uh226,97266.0,Multnomah County,"6400 SE 101st Ave, Portland, OR 97266, USA",45.4707988,-122.5603489
Mix 1578271,ec3nq13z,97266.0,Multnomah County,"6400 SE 101st Ave, Portland, OR 97266, USA",45.4707988,-122.5603489
Mix 1578448,ec32dux1,97266.0,Multnomah County,"6400 SE 101st Ave, Portland, OR 97266, USA",45.4707988,-122.5603489
Mix 1579087,ec3xqhkx,97266.0,Multnomah County,"6400 SE 101st Ave, Portland, OR 97266, USA",45.4707988,-122.5603489
Mix 1599907F,ec3n0q86,97266.0,Multnomah County,"6400 SE 101st Ave, Portland, OR 97266, USA",45.4707988,-122.5603489
Mix 1579740,ec3c9rg4,97266.0,Multnomah County,"6400 SE 101st Ave, Portland, OR 97266, USA",45.4707988,-122.5603489
Mix 1584970,ec3gqer7,97266.0,Multnomah County,"6400 SE 101st Ave, Portland, OR 97266, USA",45.4707988,-122.5603489
Mix 1599900,ec3ckty3,97266.0,Multnomah County,"6400 SE 101st Ave, Portland, OR 97266, USA",45.4707988,-122.5603489
Mix 1595942C,ec3kgj7z,97266.0,Multnomah County,"6400 SE 101st Ave, Portland, OR 97266, USA",45.4707988,-122.5603489
Mix 1594429,ec3a26jk,97266.0,Multnomah County,"6400 SE 101st Ave, Portland, OR 97266, USA",45.4707988,-122.5603489
Mix 1596208,ec3nejuc,97266.0,Multnomah County,"6400 SE 101st Ave, Portland, OR 97266, USA",45.4707988,-122.5603489
Mix 1598094,ec3j9wwz,97266.0,Multnomah County,"6400 SE 101st Ave, Portland, OR 97266, USA",45.4707988,-122.5603489
Mix 1596509,ec338ez0,97266.0,Multnomah County,"6400 SE 101st Ave, Portland, OR 97266, USA",45.4707988,-122.5603489
Mix 1599852,ec3ymx4n,97266.0,Multnomah County,"6400 SE 101st Ave, Portland, OR 97266, USA",45.4707988,-122.5603489
Mix 1599855,ec33hwa3,97266.0,Multnomah County,"6400 SE 101st Ave, Portland, OR 97266, USA",45.4707988,-122.5603489
Mix 1599857,ec32ndf5,97266.0,Multnomah County,"6400 SE 101st Ave, Portland, OR 97266, USA",45.4707988,-122.5603489
Mix 1599868,ec3bmmq9,97266.0,Multnomah County,"6400 SE 101st Ave, Portland, OR 97266, USA",45.4707988,-122.5603489
Mix 1599864,ec33u1r1,97266.0,Multnomah County,"6400 SE 101st Ave, Portland, OR 97266, USA",45.4707988,-122.5603489
Mix 1599876,ec3eh331,97266.0,Multnomah County,"6400 SE 101st Ave, Portland, OR 97266, USA",45.4707988,-122.5603489
Mix 3419939,ec3j4qxj,97266.0,Multnomah County,"6400 SE 101st Ave, Portland, OR 97266, USA",45.4707988,-122.5603489
Mix 3419001,ec3tsufr,97266.0,Multnomah County,"6400 SE 101st Ave, Portland, OR 97266, USA",45.4707988,-122.5603489
Mix 1599902,ec3g7tt1,97266.0,Multnomah County,"6400 SE 101st Ave, Portland, OR 97266, USA",45.4707988,-122.5603489
Mix 1599908,ec3341q9,97266.0,Multnomah County,"6400 SE 101st Ave, Portland, OR 97266, USA",45.4707988,-122.5603489
Mix 1599915,ec3kk0td,97266.0,Multnomah County,"6400 SE 101st Ave, Portland, OR 97266, USA",45.4707988,-122.5603489
Mix 1599910,ec3aqjd7,97266.0,Multnomah County,"6400 SE 101st Ave, Portland, OR 97266, USA",45.4707988,-122.5603489
Mix 1599913,ec371ef7,97266.0,Multnomah County,"6400 SE 101st Ave, Portland, OR 97266, USA",45.4707988,-122.5603489
Mix 1599934,ec3snz0j,97266.0,Multnomah County,"6400 SE 101st Ave, Portland, OR 97266, USA",45.4707988,-122.5603489
Mix 1599941,ec3r7xjy,97266.0,Multnomah County,"6400 SE 101st Ave, Portland, OR 97266, USA",45.4707988,-122.5603489
Mix 1599942,ec3jqj6d,97266.0,Multnomah County,"6400 SE 101st Ave, Portland, OR 97266, USA",45.4707988,-122.5603489
Mix 3428207,ec325150,97266.0,Multnomah County,"6400 SE 101st Ave, Portland, OR 97266, USA",45.4707988,-122.5603489
Mix 2527963,ec3cw51b,97266.0,Multnomah County,"6400 SE 101st Ave, Portland, OR 97266, USA",45.4707988,-122.5603489
Mix 1599962S,ec3y8340,97266.0,Multnomah County,"6400 SE 101st Ave, Portland, OR 97266, USA",45.4707988,-122.5603489
Mix 2104972,ec398bw1,97266.0,Multnomah County,"6400 SE 101st Ave, Portland, OR 97266, USA",45.4707988,-122.5603489
Mix 1599977,ec39k1jb,97266.0,Multnomah County,"6400 SE 101st Ave, Portland, OR 97266, USA",45.4707988,-122.5603489
Mix 2106318,ec36w32n,97266.0,Multnomah County,"6400 SE 101st Ave, Portland, OR 97266, USA",45.4707988,-122.5603489
Mix 2108207,ec3xth9j,97266.0,Multnomah County,"6400 SE 101st Ave, Portland, OR 97266, USA",45.4707988,-122.5603489
Mix 2138166C,ec3zfq7d,97266.0,Multnomah County,"6400 SE 101st Ave, Portland, OR 97266, USA",45.4707988,-122.5603489
Mix 2138180,ec3u7kfs,97266.0,Multnomah County,"6400 SE 101st Ave, Portland, OR 97266, USA",45.4707988,-122.5603489
Mix 2138180C,ec32hmz1,97266.0,Multnomah County,"6400 SE 101st Ave, Portland, OR 97266, USA",45.4707988,-122.5603489
Mix 3507962,ec3hy87d,97266.0,Multnomah County,"6400 SE 101st Ave, Portland, OR 97266, USA",45.4707988,-122.5603489
Mix 2301477C,ec3xfy6m,97266.0,Multnomah County,"6400 SE 101st Ave, Portland, OR 97266, USA",45.4707988,-122.5603489
Mix 2305387,ec31gd9q,97266.0,Multnomah County,"6400 SE 101st Ave, Portland, OR 97266, USA",45.4707988,-122.5603489
Mix 2308161,ec392k2n,97266.0,Multnomah County,"6400 SE 101st Ave, Portland, OR 97266, USA",45.4707988,-122.5603489
Mix 2313002,ec31x2uj,97266.0,Multnomah County,"6400 SE 101st Ave, Portland, OR 97266, USA",45.4707988,-122.5603489
Mix 2308197,ec3ywubg,97266.0,Multnomah County,"6400 SE 101st Ave, Portland, OR 97266, USA",45.4707988,-122.5603489
Mix 2515362,ec3r21x1,97266.0,Multnomah County,"6400 SE 101st Ave, Portland, OR 97266, USA",45.4707988,-122.5603489
Mix 3415362,ec3r284u,97266.0,Multnomah County,"6400 SE 101st Ave, Portland, OR 97266, USA",45.4707988,-122.5603489
Mix 1529898,ec335sfx,97217.0,Multnomah County,"5225 N Channel Ave, Portland, OR 97217, USA",45.5610747,-122.7155495
390218,ec3bzbyu,97408.0,Lane County,"3600 Wildish Ln, Eugene, OR 97408, USA",44.1096264,-123.0671489
390217,ec335nez,97408.0,Lane County,"3600 Wildish Ln, Eugene, OR 97408, USA",44.1096264,-123.0671489
390219,ec34tfd7,97408.0,Lane County,"3600 Wildish Ln, Eugene, OR 97408, USA",44.1096264,-123.0671489
