Name,ID,Zip,County,Address,Latitude,Longitude
Mix 45CAC124,ec3cza1s,30340.0,Gwinnett County,"2395 Weaver Way, Atlanta, GA 30340, USA",33.9181674,-84.2369614
Cemex Clinchfield Cement Type IL,ec38hkp2,31069.0,Houston County,"2720 US-341, Perry, GA 31069, USA",32.4155199,-83.6328477
Mix 40JNC0244,ec34wxak,30340.0,Gwinnett County,"2395 Weaver Way, Atlanta, GA 30340, USA",33.9181674,-84.2369614
Mix 45CNC0647SP,ec38zxd1,30340.0,Gwinnett County,"2395 Weaver Way, Atlanta, GA 30340, USA",33.9181674,-84.2369614
Mix 45CNC0459SP,ec3nepgc,30340.0,Gwinnett County,"2395 Weaver Way, Atlanta, GA 30340, USA",33.9181674,-84.2369614
Mix 30CAC199,ec3d9guc,30340.0,Gwinnett County,"2395 Weaver Way, Atlanta, GA 30340, USA",33.9181674,-84.2369614
Mix 40CAV0968,ec3r1s0c,30340.0,Gwinnett County,"2395 Weaver Way, Atlanta, GA 30340, USA",33.9181674,-84.2369614
Mix 70GNV0910,ec3fn1ns,30316.0,Fulton County,"885 Glenwood Ave SE, Atlanta, GA 30316, USA",33.7394571,-84.3588446
Mix 30K2D44NAF,ec32hhx7,30340.0,Gwinnett County,"2395 Weaver Way, Atlanta, GA 30340, USA",33.9181674,-84.2369614
Mix 30K1D43NAX,ec3bx9qu,30340.0,Gwinnett County,"2395 Weaver Way, Atlanta, GA 30340, USA",33.9181674,-84.2369614
Mix 60MASS05,ec3mpk5w,30340.0,Gwinnett County,"2395 Weaver Way, Atlanta, GA 30340, USA",33.9181674,-84.2369614
Mix 40MASS01,ec3wjnd5,30340.0,Gwinnett County,"2395 Weaver Way, Atlanta, GA 30340, USA",33.9181674,-84.2369614
Mix 40JNX212,ec37pkez,30340.0,Gwinnett County,"2395 Weaver Way, Atlanta, GA 30340, USA",33.9181674,-84.2369614
Mix 40CNV0379,ec3rkyk1,30340.0,Gwinnett County,"2395 Weaver Way, Atlanta, GA 30340, USA",33.9181674,-84.2369614
Mix 30CNV104,ec35qmg1,30340.0,Gwinnett County,"2395 Weaver Way, Atlanta, GA 30340, USA",33.9181674,-84.2369614
Mix 40CAV0975,ec3dbw8s,30340.0,Gwinnett County,"2395 Weaver Way, Atlanta, GA 30340, USA",33.9181674,-84.2369614
Mix 40JNV212,ec315aw9,30340.0,Gwinnett County,"2395 Weaver Way, Atlanta, GA 30340, USA",33.9181674,-84.2369614
30JNC602,ec32t07u,30340.0,Gwinnett County,"2395 Weaver Way, Atlanta, GA 30340, USA",33.9181674,-84.2369614
35CNC39,ec3a8e2s,30340.0,Gwinnett County,"2395 Weaver Way, Atlanta, GA 30340, USA",33.9181674,-84.2369614
40CAC205,ec34e0n9,30340.0,Gwinnett County,"2395 Weaver Way, Atlanta, GA 30340, USA",33.9181674,-84.2369614
40CNC159,ec3nk1nc,30340.0,Gwinnett County,"2395 Weaver Way, Atlanta, GA 30340, USA",33.9181674,-84.2369614
40CNC196,ec3q8a32,30340.0,Gwinnett County,"2395 Weaver Way, Atlanta, GA 30340, USA",33.9181674,-84.2369614
40CNC82,ec3x5k9y,30340.0,Gwinnett County,"2395 Weaver Way, Atlanta, GA 30340, USA",33.9181674,-84.2369614
50JNF0393,ec3ed2tj,30340.0,Gwinnett County,"2395 Weaver Way, Atlanta, GA 30340, USA",33.9181674,-84.2369614
60JAX496,ec3k0s0p,30340.0,Gwinnett County,"2395 Weaver Way, Atlanta, GA 30340, USA",33.9181674,-84.2369614
60JNF634,ec3bxp0e,30340.0,Gwinnett County,"2395 Weaver Way, Atlanta, GA 30340, USA",33.9181674,-84.2369614
70JNV455,ec3jfhd2,30340.0,Gwinnett County,"2395 Weaver Way, Atlanta, GA 30340, USA",33.9181674,-84.2369614
X0JNV0476,ec39jq2q,30340.0,Gwinnett County,"2395 Weaver Way, Atlanta, GA 30340, USA",33.9181674,-84.2369614
X2JNV977,ec37bzjx,30340.0,Gwinnett County,"2395 Weaver Way, Atlanta, GA 30340, USA",33.9181674,-84.2369614
209GT,ec3jdjbg,31404.0,Chatham,"42 Forbes Road, Savannah, GA 31404",32.07598,-81.04809
40CNC0423,ec3srsuy,30340.0,Gwinnett County,"2395 Weaver Way, Atlanta, GA 30340, USA",33.9181674,-84.2369614
Mix 30K3D40NAF,ec3fdw30,30340.0,Gwinnett County,"2395 Weaver Way, Atlanta, GA 30340, USA",33.9181674,-84.2369614
Mix 50GNF491,ec3g0chq,30337.0,Fulton County,"2625 Sullivan Rd, Atlanta, GA 30337, USA",33.6255313,-84.4748087
SCS407GT,ec3379jt,31322.0,Chatham County,"1724 Old Dean Forest Rd, Pooler, GA 31322, USA",32.0896459,-81.1985589
Mix 20CAC10,ec3gqrcm,30025.0,Walton County,"760 Shire Pkwy, Social Circle, GA 30025, USA",33.6008187,-83.6814864
Mix 30CAC199,ec3w3huf,30025.0,Walton County,"760 Shire Pkwy, Social Circle, GA 30025, USA",33.6008187,-83.6814864
Mix 30JNC602,ec30z5p9,30025.0,Walton County,"760 Shire Pkwy, Social Circle, GA 30025, USA",33.6008187,-83.6814864
Mix 30RAF443,ec3watc2,30025.0,Walton County,"760 Shire Pkwy, Social Circle, GA 30025, USA",33.6008187,-83.6814864
Mix 30GNC5,ec3381db,30025.0,Walton County,"760 Shire Pkwy, Social Circle, GA 30025, USA",33.6008187,-83.6814864
Mix DUCTBANK,ec3005dg,30025.0,Walton County,"760 Shire Pkwy, Social Circle, GA 30025, USA",33.6008187,-83.6814864
Mix 40CAC113,ec3tuqgw,30025.0,Walton County,"760 Shire Pkwy, Social Circle, GA 30025, USA",33.6008187,-83.6814864
Mix 40CNC0542,ec3yfyhk,30025.0,Walton County,"760 Shire Pkwy, Social Circle, GA 30025, USA",33.6008187,-83.6814864
1581001,ec3jb3y6,30009.0,Fulton County,"11430 N Fulton Industrial Blvd, Alpharetta, GA 30009, USA",34.0571892,-84.3062867
1579678,ec3yaym4,30337.0,Fulton County,"2194 W Point Ave, Atlanta, GA 30337, USA",33.6365151,-84.45956729999999
1586293,ec3w0y6m,30337.0,Fulton County,"2194 W Point Ave, Atlanta, GA 30337, USA",33.6365151,-84.45956729999999
Mix BERKELPOINT4,ec3e1jq1,30340.0,Gwinnett County,"2395 Weaver Way, Atlanta, GA 30340, USA",33.9181674,-84.2369614
Mix 40CNF166,ec3pfywz,30340.0,Gwinnett County,"2395 Weaver Way, Atlanta, GA 30340, USA",33.9181674,-84.2369614
Mix 50CNX440,ec37w5j6,30340.0,Gwinnett County,"2395 Weaver Way, Atlanta, GA 30340, USA",33.9181674,-84.2369614
Mix 60CNX105,ec3rajdf,30340.0,Gwinnett County,"2395 Weaver Way, Atlanta, GA 30340, USA",33.9181674,-84.2369614
Mix 35CNC39,ec3z9t5g,30340.0,Gwinnett County,"2395 Weaver Way, Atlanta, GA 30340, USA",33.9181674,-84.2369614
Mix 70JNV0463,ec3f6h1m,30340.0,Gwinnett County,"2395 Weaver Way, Atlanta, GA 30340, USA",33.9181674,-84.2369614
Mix 30CAC199,ec3um4qy,30340.0,Gwinnett County,"2395 Weaver Way, Atlanta, GA 30340, USA",33.9181674,-84.2369614
Mix 60JAX496,ec3357sk,30340.0,Gwinnett County,"2395 Weaver Way, Atlanta, GA 30340, USA",33.9181674,-84.2369614
Mix 30CAC199,ec31qr2a,30340.0,Gwinnett County,"2395 Weaver Way, Atlanta, GA 30340, USA",33.9181674,-84.2369614
Mix 40CNC0423,ec3yjyqj,30340.0,Gwinnett County,"2395 Weaver Way, Atlanta, GA 30340, USA",33.9181674,-84.2369614
Mix 45CNC0647,ec3txq26,30340.0,Gwinnett County,"2395 Weaver Way, Atlanta, GA 30340, USA",33.9181674,-84.2369614
Mix 60CNX105,ec3wr0fb,30340.0,Gwinnett County,"2395 Weaver Way, Atlanta, GA 30340, USA",33.9181674,-84.2369614
Mix 50CNC966,ec375dqt,30340.0,Gwinnett County,"2395 Weaver Way, Atlanta, GA 30340, USA",33.9181674,-84.2369614
Mix 45CNC0459,ec3nabrq,30340.0,Gwinnett County,"2395 Weaver Way, Atlanta, GA 30340, USA",33.9181674,-84.2369614
Mix 45JAC0089,ec3r9qzh,30340.0,Gwinnett County,"2395 Weaver Way, Atlanta, GA 30340, USA",33.9181674,-84.2369614
Mix 40CAC128,ec302q7e,30340.0,Gwinnett County,"2395 Weaver Way, Atlanta, GA 30340, USA",33.9181674,-84.2369614
Mix 30K2D40NAF,ec34t8th,30340.0,Gwinnett County,"2395 Weaver Way, Atlanta, GA 30340, USA",33.9181674,-84.2369614
Mix 50CNC966,ec33meum,30340.0,Gwinnett County,"2395 Weaver Way, Atlanta, GA 30340, USA",33.9181674,-84.2369614
Mix 45CAX0684SP,ec3aqrrm,30340.0,Gwinnett County,"2395 Weaver Way, Atlanta, GA 30340, USA",33.9181674,-84.2369614
Mix 60MASS04,ec3fyhmj,30340.0,Gwinnett County,"2395 Weaver Way, Atlanta, GA 30340, USA",33.9181674,-84.2369614
Mix 40CNC0423,ec315euc,30340.0,Gwinnett County,"2395 Weaver Way, Atlanta, GA 30340, USA",33.9181674,-84.2369614
Mix 50JNC04,ec3y3kw1,30340.0,Gwinnett County,"2395 Weaver Way, Atlanta, GA 30340, USA",33.9181674,-84.2369614
Mix 70JNV0463,ec3gsu0m,30340.0,Gwinnett County,"2395 Weaver Way, Atlanta, GA 30340, USA",33.9181674,-84.2369614
Mix 30CNX104,ec31f3xd,30340.0,Gwinnett County,"2395 Weaver Way, Atlanta, GA 30340, USA",33.9181674,-84.2369614
Mix 50CNX440,ec3qj0xh,30340.0,Gwinnett County,"2395 Weaver Way, Atlanta, GA 30340, USA",33.9181674,-84.2369614
Mix 80CNV722,ec384mnt,30340.0,Gwinnett County,"2395 Weaver Way, Atlanta, GA 30340, USA",33.9181674,-84.2369614
Mix 50CAX139,ec33xn86,30340.0,Gwinnett County,"2395 Weaver Way, Atlanta, GA 30340, USA",33.9181674,-84.2369614
Mix 35CAF0665,ec3rn71r,30340.0,Gwinnett County,"2395 Weaver Way, Atlanta, GA 30340, USA",33.9181674,-84.2369614
Mix 40JNC913,ec3px0mx,30340.0,Gwinnett County,"2395 Weaver Way, Atlanta, GA 30340, USA",33.9181674,-84.2369614
Mix 70MASS02,ec37m13z,30340.0,Gwinnett County,"2395 Weaver Way, Atlanta, GA 30340, USA",33.9181674,-84.2369614
Mix 30CNC160,ec3tpp89,30340.0,Gwinnett County,"2395 Weaver Way, Atlanta, GA 30340, USA",33.9181674,-84.2369614
Mix 50CNX441,ec329u2m,30340.0,Gwinnett County,"2395 Weaver Way, Atlanta, GA 30340, USA",33.9181674,-84.2369614
Mix 50CAX225,ec3pn1z4,30340.0,Gwinnett County,"2395 Weaver Way, Atlanta, GA 30340, USA",33.9181674,-84.2369614
Mix 50CAX139,ec35c1xg,30340.0,Gwinnett County,"2395 Weaver Way, Atlanta, GA 30340, USA",33.9181674,-84.2369614
Mix 40CNF0679,ec33e4mw,30340.0,Gwinnett County,"2395 Weaver Way, Atlanta, GA 30340, USA",33.9181674,-84.2369614
Mix 40JNX0487,ec35bb68,30340.0,Gwinnett County,"2395 Weaver Way, Atlanta, GA 30340, USA",33.9181674,-84.2369614
Mix 40SNC221SP,ec3ca1y1,30340.0,Gwinnett County,"2395 Weaver Way, Atlanta, GA 30340, USA",33.9181674,-84.2369614
Mix 30K3D44NAF,ec30t0rf,30340.0,Gwinnett County,"2395 Weaver Way, Atlanta, GA 30340, USA",33.9181674,-84.2369614
Mix 40CNC159,ec3944wp,30340.0,Gwinnett County,"2395 Weaver Way, Atlanta, GA 30340, USA",33.9181674,-84.2369614
Mix 70JNF078,ec3dj3bu,30340.0,Gwinnett County,"2395 Weaver Way, Atlanta, GA 30340, USA",33.9181674,-84.2369614
Mix 40CNX0424,ec389kg1,30340.0,Gwinnett County,"2395 Weaver Way, Atlanta, GA 30340, USA",33.9181674,-84.2369614
Mix 30SNX383,ec3qcmcw,30340.0,Gwinnett County,"2395 Weaver Way, Atlanta, GA 30340, USA",33.9181674,-84.2369614
Mix 40CNF05,ec3cqb98,30340.0,Gwinnett County,"2395 Weaver Way, Atlanta, GA 30340, USA",33.9181674,-84.2369614
Mix 50JNC04,ec3169ss,30340.0,Gwinnett County,"2395 Weaver Way, Atlanta, GA 30340, USA",33.9181674,-84.2369614
Mix 40JNC913,ec3k1e47,30340.0,Gwinnett County,"2395 Weaver Way, Atlanta, GA 30340, USA",33.9181674,-84.2369614
Mix 40CNC82SP,ec392w6m,30340.0,Gwinnett County,"2395 Weaver Way, Atlanta, GA 30340, USA",33.9181674,-84.2369614
Mix 60MASS03,ec3215a9,30340.0,Gwinnett County,"2395 Weaver Way, Atlanta, GA 30340, USA",33.9181674,-84.2369614
Mix 35SAC534,ec3fsg4s,30340.0,Gwinnett County,"2395 Weaver Way, Atlanta, GA 30340, USA",33.9181674,-84.2369614
Mix 60JNF634,ec3gcr4q,30340.0,Gwinnett County,"2395 Weaver Way, Atlanta, GA 30340, USA",33.9181674,-84.2369614
Mix 30K1D40NAF,ec33c06j,30340.0,Gwinnett County,"2395 Weaver Way, Atlanta, GA 30340, USA",33.9181674,-84.2369614
Mix 40CNV0379,ec3e26k5,30340.0,Gwinnett County,"2395 Weaver Way, Atlanta, GA 30340, USA",33.9181674,-84.2369614
Mix 30CNV104,ec3rk81y,30340.0,Gwinnett County,"2395 Weaver Way, Atlanta, GA 30340, USA",33.9181674,-84.2369614
Mix 40JNX212,ec3d3p06,30340.0,Gwinnett County,"2395 Weaver Way, Atlanta, GA 30340, USA",33.9181674,-84.2369614
Mix 35CNX309,ec39jzmc,30340.0,Gwinnett County,"2395 Weaver Way, Atlanta, GA 30340, USA",33.9181674,-84.2369614
Mix 40CNX51,ec35zbyc,30340.0,Gwinnett County,"2395 Weaver Way, Atlanta, GA 30340, USA",33.9181674,-84.2369614
Mix 40SAC0269,ec3qsxs6,30340.0,Gwinnett County,"2395 Weaver Way, Atlanta, GA 30340, USA",33.9181674,-84.2369614
Mix 40CAV0968,ec3acscf,30340.0,Gwinnett County,"2395 Weaver Way, Atlanta, GA 30340, USA",33.9181674,-84.2369614
Mix 60MASS01,ec3kp35r,30340.0,Gwinnett County,"2395 Weaver Way, Atlanta, GA 30340, USA",33.9181674,-84.2369614
Mix 45CNC0459,ec3yxpg6,30340.0,Gwinnett County,"2395 Weaver Way, Atlanta, GA 30340, USA",33.9181674,-84.2369614
Mix 40CNF166,ec3zu4wy,30340.0,Gwinnett County,"2395 Weaver Way, Atlanta, GA 30340, USA",33.9181674,-84.2369614
Mix 30GNC5,ec32th5d,30340.0,Gwinnett County,"2395 Weaver Way, Atlanta, GA 30340, USA",33.9181674,-84.2369614
Mix 60MASS01,ec3js09r,30340.0,Gwinnett County,"2395 Weaver Way, Atlanta, GA 30340, USA",33.9181674,-84.2369614
Mix 50CNF503,ec3eczh5,30340.0,Gwinnett County,"2395 Weaver Way, Atlanta, GA 30340, USA",33.9181674,-84.2369614
Mix 30K1D40NAF,ec3endrd,30340.0,Gwinnett County,"2395 Weaver Way, Atlanta, GA 30340, USA",33.9181674,-84.2369614
Mix 70GNV0910,ec3ef1sj,30340.0,Gwinnett County,"2395 Weaver Way, Atlanta, GA 30340, USA",33.9181674,-84.2369614
Mix 40CAX50SP,ec311dq2,30340.0,Gwinnett County,"2395 Weaver Way, Atlanta, GA 30340, USA",33.9181674,-84.2369614
Mix 70JNV0463,ec3kc7ke,30340.0,Gwinnett County,"2395 Weaver Way, Atlanta, GA 30340, USA",33.9181674,-84.2369614
Mix 70SNG0427,ec3nhybd,30340.0,Gwinnett County,"2395 Weaver Way, Atlanta, GA 30340, USA",33.9181674,-84.2369614
Mix 70SNG0427,ec310bgr,30340.0,Gwinnett County,"2395 Weaver Way, Atlanta, GA 30340, USA",33.9181674,-84.2369614
Mix 40CNC82,ec3pn57t,30340.0,Gwinnett County,"2395 Weaver Way, Atlanta, GA 30340, USA",33.9181674,-84.2369614
Mix 40CAC205,ec3p8hmj,30340.0,Gwinnett County,"2395 Weaver Way, Atlanta, GA 30340, USA",33.9181674,-84.2369614
Mix 50CNC966,ec33bbeh,30340.0,Gwinnett County,"2395 Weaver Way, Atlanta, GA 30340, USA",33.9181674,-84.2369614
Mix 40CAC113,ec3t7ya9,30340.0,Gwinnett County,"2395 Weaver Way, Atlanta, GA 30340, USA",33.9181674,-84.2369614
Mix 40CNC82,ec3uf1aw,30340.0,Gwinnett County,"2395 Weaver Way, Atlanta, GA 30340, USA",33.9181674,-84.2369614
Mix 40MASS01,ec3c8zf8,30340.0,Gwinnett County,"2395 Weaver Way, Atlanta, GA 30340, USA",33.9181674,-84.2369614
Mix X0JNV966,ec3hy8hc,30340.0,Gwinnett County,"2395 Weaver Way, Atlanta, GA 30340, USA",33.9181674,-84.2369614
Mix X0JNV966,ec38rnzr,30340.0,Gwinnett County,"2395 Weaver Way, Atlanta, GA 30340, USA",33.9181674,-84.2369614
Mix 35CNC513,ec31q7ws,30340.0,Gwinnett County,"2395 Weaver Way, Atlanta, GA 30340, USA",33.9181674,-84.2369614
Mix 45CNC595SP,ec3rp3xa,30340.0,Gwinnett County,"2395 Weaver Way, Atlanta, GA 30340, USA",33.9181674,-84.2369614
Mix 30K2D44NAF,ec36yyu0,30340.0,Gwinnett County,"2395 Weaver Way, Atlanta, GA 30340, USA",33.9181674,-84.2369614
Mix 40CNF05,ec3may3p,30340.0,Gwinnett County,"2395 Weaver Way, Atlanta, GA 30340, USA",33.9181674,-84.2369614
Mix 40CNC577,ec3wzd9s,30340.0,Gwinnett County,"2395 Weaver Way, Atlanta, GA 30340, USA",33.9181674,-84.2369614
Mix 70JNV455,ec3hj9fq,30340.0,Gwinnett County,"2395 Weaver Way, Atlanta, GA 30340, USA",33.9181674,-84.2369614
Mix 40CAC128,ec3uxpff,30340.0,Gwinnett County,"2395 Weaver Way, Atlanta, GA 30340, USA",33.9181674,-84.2369614
Mix 60MASS05,ec3736p2,30340.0,Gwinnett County,"2395 Weaver Way, Atlanta, GA 30340, USA",33.9181674,-84.2369614
Mix 40JNX0487,ec3x27rs,30340.0,Gwinnett County,"2395 Weaver Way, Atlanta, GA 30340, USA",33.9181674,-84.2369614
Mix 38K1D40NAX,ec32kfx1,30340.0,Gwinnett County,"2395 Weaver Way, Atlanta, GA 30340, USA",33.9181674,-84.2369614
Mix X2JNV977,ec3bq68m,30340.0,Gwinnett County,"2395 Weaver Way, Atlanta, GA 30340, USA",33.9181674,-84.2369614
Mix 70MASS02,ec3zcqbb,30340.0,Gwinnett County,"2395 Weaver Way, Atlanta, GA 30340, USA",33.9181674,-84.2369614
Mix 50CAX225,ec3mc8uq,30340.0,Gwinnett County,"2395 Weaver Way, Atlanta, GA 30340, USA",33.9181674,-84.2369614
Mix 30CNX104,ec3a6412,30340.0,Gwinnett County,"2395 Weaver Way, Atlanta, GA 30340, USA",33.9181674,-84.2369614
Mix 80MASS04,ec3pb7ek,30340.0,Gwinnett County,"2395 Weaver Way, Atlanta, GA 30340, USA",33.9181674,-84.2369614
Mix 30JNC602,ec3m9rw3,30340.0,Gwinnett County,"2395 Weaver Way, Atlanta, GA 30340, USA",33.9181674,-84.2369614
Mix 30K2D40NAF,ec3ajs67,30340.0,Gwinnett County,"2395 Weaver Way, Atlanta, GA 30340, USA",33.9181674,-84.2369614
Mix 30K3D40NAF,ec39e1pu,30340.0,Gwinnett County,"2395 Weaver Way, Atlanta, GA 30340, USA",33.9181674,-84.2369614
Mix 45CNC0647,ec3096gs,30340.0,Gwinnett County,"2395 Weaver Way, Atlanta, GA 30340, USA",33.9181674,-84.2369614
Mix 209GT,ec3ymgd3,31404.0,Chatham,"42 Forbes Road, Savannah, GA 31404",32.07598,-81.04809
Mix 209GT,ec30jctj,30318.0,Fulton,"1430 Marietta Boulevard Northwest, Atlanta, GA 30318",33.79411,-84.43239
Mix 50GNF491,ec3m722k,30337.0,Fulton County,"2625 Sullivan Rd, Atlanta, GA 30337, USA",33.6255313,-84.4748087
Cemex Clinchfield Cement Masonry S,ec37g8w4,31069.0,Houston County,"2720 US-341, Perry, GA 31069, USA",32.4155199,-83.6328477
Mix 40AAP0362,ec3jf3xd,30340.0,Gwinnett County,"2395 Weaver Way, Atlanta, GA 30340, USA",33.9181674,-84.2369614
Mix 45JAC0089SP,ec3st254,30340.0,Gwinnett County,"2395 Weaver Way, Atlanta, GA 30340, USA",33.9181674,-84.2369614
Mix 45CNC0647,ec3xpde6,30340.0,Gwinnett County,"2395 Weaver Way, Atlanta, GA 30340, USA",33.9181674,-84.2369614
Mix 30CAC0564,ec3rzwqs,30025.0,Walton County,"760 Shire Pkwy, Social Circle, GA 30025, USA",33.6008187,-83.6814864
Mix 30CNC0558,ec3yr9hp,30025.0,Walton County,"760 Shire Pkwy, Social Circle, GA 30025, USA",33.6008187,-83.6814864
Mix 40CAC128,ec3dfc8z,30025.0,Walton County,"760 Shire Pkwy, Social Circle, GA 30025, USA",33.6008187,-83.6814864
Mix 40CNC0423,ec3kqsne,30025.0,Walton County,"760 Shire Pkwy, Social Circle, GA 30025, USA",33.6008187,-83.6814864
Mix 35CNC0449,ec3rpfbp,30025.0,Walton County,"760 Shire Pkwy, Social Circle, GA 30025, USA",33.6008187,-83.6814864
Mix 35CAC0565,ec3cf0y6,30025.0,Walton County,"760 Shire Pkwy, Social Circle, GA 30025, USA",33.6008187,-83.6814864
Mix 35CAC0657,ec317hs5,30025.0,Walton County,"760 Shire Pkwy, Social Circle, GA 30025, USA",33.6008187,-83.6814864
Mix 35CNC0555,ec350fb2,30025.0,Walton County,"760 Shire Pkwy, Social Circle, GA 30025, USA",33.6008187,-83.6814864
Mix X0JNV996,ec30zgs3,30340.0,Gwinnett County,"2395 Weaver Way, Atlanta, GA 30340, USA",33.9181674,-84.2369614
Mix 40CNC577,ec32xj56,30340.0,Gwinnett County,"2395 Weaver Way, Atlanta, GA 30340, USA",33.9181674,-84.2369614
Cemex Clinchfield Cement Type I/II,ec3wtugn,31069.0,Houston County,"2720 US-341, Perry, GA 31069, USA",32.4155199,-83.6328477
Cemex Clinchfield Cement Type III,ec34b8cc,31069.0,Houston County,"2720 US-341, Perry, GA 31069, USA",32.4155199,-83.6328477
Cemex Clinchfield Cement Masonry N,ec3fjddj,31069.0,Houston County,"2720 US-341, Perry, GA 31069, USA",32.4155199,-83.6328477
Mix 30CAX111,ec3bbsjk,30025.0,Walton County,"760 Shire Pkwy, Social Circle, GA 30025, USA",33.6008187,-83.6814864
Mix TERNARY GROUT #1,ec3pddxb,30337.0,Fulton County,"2625 Sullivan Rd, Atlanta, GA 30337, USA",33.6255313,-84.4748087
Mix 50JNF0393,ec3hay8k,30340.0,Gwinnett County,"2395 Weaver Way, Atlanta, GA 30340, USA",33.9181674,-84.2369614
Mix 40CNC196,ec3k8w3u,30340.0,Gwinnett County,"2395 Weaver Way, Atlanta, GA 30340, USA",33.9181674,-84.2369614
Mix X0JNV0476,ec3ta885,30340.0,Gwinnett County,"2395 Weaver Way, Atlanta, GA 30340, USA",33.9181674,-84.2369614
Mix 50CNF503,ec3sc6sf,30340.0,Gwinnett County,"2395 Weaver Way, Atlanta, GA 30340, USA",33.9181674,-84.2369614
